eventid,iyear,imonth,iday,approxdate,extended,resolution,country,country_txt,region,region_txt,provstate,city,latitude,longitude,specificity,vicinity,location,summary
1.97001E+11,1970,1,0,,0,,101,Japan,4,East Asia,Fukouka,Fukouka,33.580412,130.396361,1,0,,
1.97003E+11,1970,3,31,,1,03/04/1970,101,Japan,4,East Asia,Fukouka,Fukouka,33.580412,130.396361,1,0,,
1.97111E+11,1971,11,20,,0,,201,Taiwan,4,East Asia,Penghu,Unknown,23.583333,119.58333,4,0,,
1.97304E+11,1973,4,25,,0,,101,Japan,4,East Asia,Kanagawa,Yokosuka,35.281341,139.6722,1,0,,
1.97308E+11,1973,8,29,,0,,101,Japan,4,East Asia,Tokyo,Tokyo,35.689125,139.747742,1,0,,
1.97407E+11,1974,7,15,,0,,101,Japan,4,East Asia,Hyogo,Itami,34.784306,135.400947,1,0,,
1.97408E+11,1974,8,15,,0,,184,South Korea,4,East Asia,Seoul,Seoul,37.566535,126.977969,1,0,,
1.97411E+11,1974,11,14,,0,,101,Japan,4,East Asia,Tokyo,Tokyo,35.689125,139.747742,1,0,,
1.97411E+11,1974,11,22,,0,,101,Japan,4,East Asia,Fukouka,Fukouka,33.580412,130.396361,1,0,,
1.97502E+11,1975,2,28,,0,,101,Japan,4,East Asia,Tokyo,Tokyo,35.689125,139.747742,1,0,,
1.97504E+11,1975,4,19,,0,,101,Japan,4,East Asia,Tokyo,Tokyo,35.689125,139.747742,1,0,,
1.97505E+11,1975,5,25,,0,,101,Japan,4,East Asia,Aichi,Nagoya,35.181446,136.906398,1,0,,
1.97505E+11,1975,5,25,,0,,101,Japan,4,East Asia,Tokyo,Tachikawa,35.714008,139.407855,1,0,,
1.97507E+11,1975,7,19,,0,,101,Japan,4,East Asia,Tokyo,Kasumigaseki,35.689125,139.747742,1,0,,
1.97507E+11,1975,7,23,,0,,101,Japan,4,East Asia,Okinawa,Okinawa,26.334427,127.805583,1,0,,
1.97508E+11,1975,8,14,,0,,101,Japan,4,East Asia,Tokyo,Tokyo,35.689125,139.747742,1,0,,
1.97508E+11,1975,8,14,,0,,101,Japan,4,East Asia,Tokyo,Tokyo,35.689125,139.747742,1,0,,
1.97508E+11,1975,8,14,,0,,101,Japan,4,East Asia,Tokyo,Tokyo,35.689125,139.747742,1,0,,
1.97509E+11,1975,9,24,,0,,101,Japan,4,East Asia,Unknown,Unknown,,,5,0,,
1.97509E+11,1975,9,24,,0,,101,Japan,4,East Asia,Unknown,Unknown,,,5,0,,
1.9751E+11,1975,10,15,,0,,101,Japan,4,East Asia,Tokyo,Ogikubo,35.689125,139.747742,1,0,,
1.97603E+11,1976,3,2,,0,,101,Japan,4,East Asia,Hokkaido,Sapporo,43.062096,141.354376,1,0,,
1.9761E+11,1976,10,17,,0,,201,Taiwan,4,East Asia,Taipei,Taipei,25.091075,121.559834,1,0,,
1.977E+11,1977,0,0,,0,,101,Japan,4,East Asia,Tokyo,Tokyo,35.689125,139.747742,1,0,,
1.977E+11,1977,0,0,,0,,101,Japan,4,East Asia,Tokyo,Tokyo,35.689125,139.747742,1,0,,
1.977E+11,1977,0,0,,0,,101,Japan,4,East Asia,Tokyo,Tokyo,35.689125,139.747742,1,0,,
1.97711E+11,1977,11,0,,0,,101,Japan,4,East Asia,Tokyo,Tokyo,35.689125,139.747742,1,0,,
1.97801E+11,1978,1,1,,0,,101,Japan,4,East Asia,Kyoto,Kyoto,35.011636,135.768029,1,0,,
1.97801E+11,1978,1,27,,0,,101,Japan,4,East Asia,Ibaraki,Mito,36.365856,140.471222,1,0,,
1.97801E+11,1978,1,27,,0,,101,Japan,4,East Asia,Ibaraki,Mito,36.365856,140.471222,1,0,,
1.97801E+11,1978,1,27,,0,,101,Japan,4,East Asia,Ibaraki,Katsuta,36.393644,140.524393,1,0,,
1.97801E+11,1978,1,27,,0,,101,Japan,4,East Asia,Ibaraki,Mito,36.365856,140.471222,1,0,,
1.97802E+11,1978,2,25,,0,,101,Japan,4,East Asia,Chiba,Narita,35.772163,140.321777,1,0,,
1.97803E+11,1978,3,13,,0,,101,Japan,4,East Asia,Chiba,Chiba,35.607221,140.10627,1,0,,
1.97803E+11,1978,3,19,,0,,101,Japan,4,East Asia,Hyogo,Itami,34.784306,135.400947,1,0,,
1.97803E+11,1978,3,26,,0,,101,Japan,4,East Asia,Chiba,Narita,35.772163,140.321777,1,0,,
1.97803E+11,1978,3,27,,0,,101,Japan,4,East Asia,Chiba,Narita,35.772163,140.321777,1,0,,
1.97805E+11,1978,5,5,,0,,101,Japan,4,East Asia,Chiba,Narita,35.772163,140.321777,1,0,,
1.97805E+11,1978,5,7,,0,,101,Japan,4,East Asia,Chiba,Narita,35.772163,140.321777,1,0,,
1.97805E+11,1978,5,12,,0,,101,Japan,4,East Asia,Hyogo,Itami,34.784306,135.400947,1,0,,
1.97805E+11,1978,5,18,,0,,101,Japan,4,East Asia,Tokyo,Tokyo,35.689125,139.747742,1,0,,
1.97805E+11,1978,5,18,,0,,101,Japan,4,East Asia,Saitama,Omiya,35.906259,139.628634,1,0,,
1.97805E+11,1978,5,20,,0,,101,Japan,4,East Asia,Chiba,Onjuku,35.191506,140.348796,1,0,,
1.97805E+11,1978,5,20,,0,,101,Japan,4,East Asia,Chiba,Narita,35.772163,140.321777,1,0,,
1.97805E+11,1978,5,21,,0,,101,Japan,4,East Asia,Chiba,Narita,35.772163,140.321777,1,0,,
1.97805E+11,1978,5,26,,0,,101,Japan,4,East Asia,Chiba,Narita,35.772163,140.321777,1,0,,
1.97805E+11,1978,5,29,,0,,101,Japan,4,East Asia,Hyogo,Itami,34.784306,135.400947,1,0,,
1.97806E+11,1978,6,0,,0,,101,Japan,4,East Asia,Ibaraki,Mt. Tsukuba,36.225339,140.106704,1,0,,
1.97806E+11,1978,6,15,,0,,101,Japan,4,East Asia,Osaka,Osaka,34.693738,135.502165,1,0,,
1.97806E+11,1978,6,18,,0,,101,Japan,4,East Asia,Osaka,Osaka,34.693738,135.502165,1,0,,
1.97806E+11,1978,6,30,,0,,101,Japan,4,East Asia,Chiba,Ryufukuji,35.801274,140.178999,1,0,,
1.97807E+11,1978,7,20,,0,,101,Japan,4,East Asia,Kanagawa,Yokohama,35.443708,139.638026,1,0,,
1.97807E+11,1978,7,30,,0,,101,Japan,4,East Asia,Tokyo,Tokyo,35.689125,139.747742,1,0,,
1.97808E+11,1978,8,3,,0,,101,Japan,4,East Asia,Tokyo,Tokyo,35.689125,139.747742,1,0,,
1.97808E+11,1978,8,9,,0,,101,Japan,4,East Asia,Tokyo,Tokyo,35.689125,139.747742,1,0,,
1.97809E+11,1978,9,3,,0,,101,Japan,4,East Asia,Chiba,Narita,35.772163,140.321777,1,0,,
1.97809E+11,1978,9,4,,0,,101,Japan,4,East Asia,Chiba,Chiba,35.607221,140.10627,1,0,,
1.97809E+11,1978,9,4,,0,,101,Japan,4,East Asia,Tokyo,Tokyo,35.689125,139.747742,1,0,,
1.97809E+11,1978,9,16,,0,,101,Japan,4,East Asia,Okinawa,Okinawa,26.334427,127.805583,1,0,,
1.9781E+11,1978,10,0,,0,,101,Japan,4,East Asia,Tokyo,Tokyo,35.689125,139.747742,1,0,,
1.97812E+11,1978,12,15,,0,,101,Japan,4,East Asia,Chiba,Narita,35.772163,140.321777,1,0,,
1.97812E+11,1978,12,17,,0,,101,Japan,4,East Asia,Tokyo,Tokyo,35.689125,139.747742,1,0,,
1.979E+11,1979,0,0,,0,,101,Japan,4,East Asia,Unknown,Unknown,,,5,0,,
1.97902E+11,1979,2,6,,0,,101,Japan,4,East Asia,Tokyo,Tokyo,35.689125,139.747742,1,0,,
1.97903E+11,1979,3,18,,0,,101,Japan,4,East Asia,Aichi,Nagoya,35.181446,136.906398,1,0,,
1.97903E+11,1979,3,18,,0,,101,Japan,4,East Asia,Osaka,Osaka,34.693738,135.502165,1,0,,
1.97903E+11,1979,3,18,,0,,101,Japan,4,East Asia,Tokyo,Tokyo,35.689125,139.747742,1,0,,
1.97903E+11,1979,3,18,,0,,101,Japan,4,East Asia,Ibaraki,Unknown,36.341811,140.446793,4,0,,
1.97903E+11,1979,3,31,,0,,101,Japan,4,East Asia,Tokyo,Tokyo,35.689125,139.747742,1,0,,
1.97904E+11,1979,4,29,,0,,101,Japan,4,East Asia,Tokyo,Tokyo,35.689125,139.747742,1,0,,
1.97906E+11,1979,6,0,,0,,101,Japan,4,East Asia,Tokyo,Tokyo,35.689125,139.747742,1,0,,
1.97906E+11,1979,6,9,,0,,101,Japan,4,East Asia,Kanagawa,Kawasaki,35.530906,139.703051,1,0,,
1.97906E+11,1979,6,15,,0,,101,Japan,4,East Asia,Tokyo,Tokyo,35.689125,139.747742,1,0,,
1.97906E+11,1979,6,20,,0,,101,Japan,4,East Asia,Tokyo,Tokyo,35.689125,139.747742,1,0,,
1.97906E+11,1979,6,24,,0,,101,Japan,4,East Asia,Tokyo,Tokyo,35.689125,139.747742,1,0,,
1.97906E+11,1979,6,24,,0,,101,Japan,4,East Asia,Tokyo,Tokyo,35.689125,139.747742,1,0,,
1.97906E+11,1979,6,27,,0,,101,Japan,4,East Asia,Tokyo,Tokyo,35.689125,139.747742,1,0,,
1.97906E+11,1979,6,28,,0,,101,Japan,4,East Asia,Tokyo,Tokyo,35.689125,139.747742,1,0,,
1.98002E+11,1980,2,6,,0,,89,Hong Kong,4,East Asia,Hong Kong,Hong Kong,22.281867,114.161326,1,0,,
1.98102E+11,1981,2,21,,0,,89,Hong Kong,4,East Asia,Hong Kong,Hong Kong,22.281867,114.161326,1,0,,
1.98103E+11,1981,3,16,,0,,101,Japan,4,East Asia,Tokyo,Tokyo,35.689125,139.747742,1,0,,
1.98103E+11,1981,3,31,,0,,89,Hong Kong,4,East Asia,Hong Kong,Hong Kong,22.281867,114.161326,1,0,,
1.98108E+11,1981,8,19,,0,,89,Hong Kong,4,East Asia,Hong Kong,Hong Kong,22.281867,114.161326,1,0,,
1.98203E+11,1982,3,18,,0,,184,South Korea,4,East Asia,Busan,Busan,35.179554,129.075642,1,0,,
1.98209E+11,1982,9,7,,0,,101,Japan,4,East Asia,Tokyo,Tokyo,35.689125,139.747742,1,0,,
1.98209E+11,1982,9,17,,0,,101,Japan,4,East Asia,Tokyo,Tokyo,35.689125,139.747742,1,0,,
1.98305E+11,1983,5,27,,0,,101,Japan,4,East Asia,Osaka,Toyonaka,34.781266,135.469739,1,0,,
1.98306E+11,1983,6,8,,0,,101,Japan,4,East Asia,Chiba,Narita,35.772163,140.321777,1,0,,
1.98307E+11,1983,7,0,,0,,101,Japan,4,East Asia,Kanagawa,Sagamihara,35.571462,139.373176,1,0,,
1.98307E+11,1983,7,4,,0,,101,Japan,4,East Asia,Chiba,Narita,35.772163,140.321777,1,0,,
1.98307E+11,1983,7,5,,0,,101,Japan,4,East Asia,Kanagawa,Yokosuka,35.281341,139.6722,1,0,,
1.98307E+11,1983,7,5,,0,,101,Japan,4,East Asia,Kanagawa,Zama,35.488587,139.407673,1,0,,
1.98307E+11,1983,7,5,,0,,101,Japan,4,East Asia,Tokyo,Tokyo,35.689125,139.747742,1,0,,
1.98307E+11,1983,7,5,,0,,101,Japan,4,East Asia,Tokyo,Tokyo,35.689125,139.747742,1,0,,
1.98309E+11,1983,9,22,,0,,184,South Korea,4,East Asia,Daegu,Daegu,35.871435,128.601445,1,0,,
1.98311E+11,1983,11,1,,0,,101,Japan,4,East Asia,Tokyo,Tokyo,35.689125,139.747742,1,0,,
1.98311E+11,1983,11,1,,0,,101,Japan,4,East Asia,Yamaguchi,Iwakuni,34.166562,132.218848,1,0,,
1.98311E+11,1983,11,8,,0,,101,Japan,4,East Asia,Osaka,Izumi,34.483474,135.423522,1,0,,
1.98311E+11,1983,11,18,,0,,101,Japan,4,East Asia,Tokyo,Tokyo,35.689125,139.747742,1,0,,
1.98402E+11,1984,2,13,,0,,101,Japan,4,East Asia,Chiba,Narita,35.772163,140.321777,1,0,,
1.98404E+11,1984,4,4,,0,,101,Japan,4,East Asia,Osaka,Osaka,34.693738,135.502165,1,0,,
1.98407E+11,1984,7,16,,0,,101,Japan,4,East Asia,Tokyo,Tokyo,35.689125,139.747742,1,0,,
1.98407E+11,1984,7,16,,0,,101,Japan,4,East Asia,Chiba,Ryufukuji,35.801274,140.178999,1,0,,
1.98407E+11,1984,7,16,,0,,101,Japan,4,East Asia,Kanagawa,Yokohama,35.443708,139.638026,1,0,,
1.98407E+11,1984,7,16,,0,,101,Japan,4,East Asia,Aichi,Kariya,34.989224,137.002107,1,0,,
1.98407E+11,1984,7,16,,0,,101,Japan,4,East Asia,Tokyo,Tokyo,35.689125,139.747742,1,0,,
1.98407E+11,1984,7,16,,0,,101,Japan,4,East Asia,Tokyo,Tokyo,35.689125,139.747742,1,0,,
1.98407E+11,1984,7,16,,0,,101,Japan,4,East Asia,Tokyo,Tokyo,35.689125,139.747742,1,0,,
1.98407E+11,1984,7,16,,0,,101,Japan,4,East Asia,Tokyo,Tokyo,35.689125,139.747742,1,0,,
1.98407E+11,1984,7,16,,0,,101,Japan,4,East Asia,Tokyo,Tokyo,35.689125,139.747742,1,0,,
1.98409E+11,1984,9,6,,0,,101,Japan,4,East Asia,Tokyo,Tokyo,35.689125,139.747742,1,0,,
1.98409E+11,1984,9,19,,0,,101,Japan,4,East Asia,Tokyo,Tokyo,35.689125,139.747742,1,0,,
1.9841E+11,1984,10,8,,0,,101,Japan,4,East Asia,Osaka,Yao,34.626864,135.600978,1,0,,
1.98412E+11,1984,12,27,,0,,101,Japan,4,East Asia,Kanagawa,Yokohama,35.443708,139.638026,1,0,,
1.98501E+11,1985,1,1,,0,,101,Japan,4,East Asia,Osaka,Osaka,34.693738,135.502165,1,0,,
1.98504E+11,1985,4,13,,0,,101,Japan,4,East Asia,Chiba,Narita,35.772163,140.321777,1,0,,
1.98504E+11,1985,4,13,,0,,101,Japan,4,East Asia,Tokyo,Tokyo,35.689125,139.747742,1,0,,
1.98505E+11,1985,5,7,,0,,101,Japan,4,East Asia,Chiba,Narita,35.772163,140.321777,1,0,,
1.98505E+11,1985,5,7,,0,,101,Japan,4,East Asia,Chiba,Narita,35.772163,140.321777,1,0,,
1.98505E+11,1985,5,7,,0,,101,Japan,4,East Asia,Chiba,Narita,35.772163,140.321777,1,0,,
1.98506E+11,1985,6,23,,0,,101,Japan,4,East Asia,Chiba,Narita,35.772163,140.321777,1,0,,
1.98507E+11,1985,7,1,,0,,101,Japan,4,East Asia,Chiba,Narita,35.772163,140.321777,1,0,,
1.98507E+11,1985,7,20,,0,,101,Japan,4,East Asia,Chiba,Tomisato,35.726808,140.343058,1,0,,
1.98511E+11,1985,11,29,,0,,101,Japan,4,East Asia,Tokyo,Tokyo,35.689125,139.747742,1,0,,
1.98603E+11,1986,3,25,,0,,101,Japan,4,East Asia,Tokyo,Tokyo,35.689125,139.747742,1,0,,
1.98603E+11,1986,3,25,,0,,101,Japan,4,East Asia,Tokyo,Tokyo,35.689125,139.747742,1,0,,
1.98603E+11,1986,3,28,,0,,101,Japan,4,East Asia,Osaka,Osaka,34.693738,135.502165,1,0,,
1.98603E+11,1986,3,28,,0,,101,Japan,4,East Asia,Osaka,Osaka,34.693738,135.502165,1,0,,
1.98603E+11,1986,3,31,,0,,101,Japan,4,East Asia,Tokyo,Tokyo,35.689125,139.747742,1,0,,
1.98604E+11,1986,4,2,,0,,101,Japan,4,East Asia,Tokyo,Tokyo,35.689125,139.747742,1,0,,
1.98604E+11,1986,4,15,,0,,101,Japan,4,East Asia,Tokyo,Fussa,35.73845,139.326932,1,0,,
1.98606E+11,1986,6,19,,0,,101,Japan,4,East Asia,Okinawa,Naha,26.22853,127.68911,1,0,,
1.98609E+11,1986,9,14,,0,,184,South Korea,4,East Asia,Seoul,Seoul,37.558947,126.798341,1,1,,
1.98609E+11,1986,9,24,,0,,101,Japan,4,East Asia,Tokyo,Tokyo,35.689125,139.747742,1,0,,
1.9861E+11,1986,10,23,,0,,101,Japan,4,East Asia,Chiba,Chiba,35.607221,140.10627,1,0,,
1.98612E+11,1986,12,15,,0,,184,South Korea,4,East Asia,Busan,Busan,35.179554,129.075642,1,0,,
1.98701E+11,1987,1,19,,0,,101,Japan,4,East Asia,Tokyo,Tokyo,35.689125,139.747742,1,0,,
1.98701E+11,1987,1,19,,0,,101,Japan,4,East Asia,Tokyo,Tokyo,35.689125,139.747742,1,0,,
1.98701E+11,1987,1,19,,0,,101,Japan,4,East Asia,Tokyo,Tokyo,35.689125,139.747742,1,0,,
1.98703E+11,1987,3,15,,0,,101,Japan,4,East Asia,Tokyo,Tokyo,35.689125,139.747742,1,0,,
1.98705E+11,1987,5,6,,0,,101,Japan,4,East Asia,Tokyo,Tokyo,35.689125,139.747742,1,0,,
1.98705E+11,1987,5,22,,0,,101,Japan,4,East Asia,Saitama,Saitama,35.861729,139.645482,1,0,,
1.98708E+11,1987,8,27,,0,,101,Japan,4,East Asia,Osaka,Izumisano,34.406726,135.326951,1,0,,
1.98708E+11,1987,8,27,,0,,101,Japan,4,East Asia,Tokyo,Tokyo,35.689125,139.747742,1,0,,
1.98709E+11,1987,9,24,,0,,101,Japan,4,East Asia,Aichi,Nagoya,35.181446,136.906398,1,0,,
1.9871E+11,1987,10,25,,0,,101,Japan,4,East Asia,Okinawa,Naha,26.22853,127.68911,1,0,,
1.98801E+11,1988,1,22,,0,,101,Japan,4,East Asia,Kanagawa,Yokohama,35.443708,139.638026,1,0,,
1.98802E+11,1988,2,21,,0,,101,Japan,4,East Asia,Tokyo,Tokyo,35.689125,139.747742,1,0,,
1.98802E+11,1988,2,29,,0,,101,Japan,4,East Asia,Tokyo,Tokyo,35.689125,139.747742,1,0,,
1.98803E+11,1988,3,4,,0,,184,South Korea,4,East Asia,Busan,Busan,35.179554,129.075642,1,0,,
1.98803E+11,1988,3,12,,0,,101,Japan,4,East Asia,Tokyo,Tokyo,35.689125,139.747742,1,0,,
1.98803E+11,1988,3,18,,0,,184,South Korea,4,East Asia,Seoul,Seoul,37.566535,126.977969,1,0,,
1.98803E+11,1988,3,21,,0,,101,Japan,4,East Asia,Tokyo,Tokyo,35.689125,139.747742,1,0,,
1.98803E+11,1988,3,21,,0,,101,Japan,4,East Asia,Tokyo,Tokyo,35.689125,139.747742,1,0,,
1.98803E+11,1988,3,21,,0,,101,Japan,4,East Asia,Fukouka,Fukouka,33.580412,130.396361,1,0,,
1.98804E+11,1988,4,13,,0,,101,Japan,4,East Asia,Chiba,Narita,35.772163,140.321777,1,0,,
1.98804E+11,1988,4,25,,0,,101,Japan,4,East Asia,Chiba,Kimitsu,35.33045,139.902677,1,0,,
1.98805E+11,1988,5,23,,0,,184,South Korea,4,East Asia,Gwangju,Gwangju,35.159545,126.852601,1,0,,
1.98805E+11,1988,5,26,,0,,184,South Korea,4,East Asia,Seoul,Seoul,37.566535,126.977969,1,0,,
1.98806E+11,1988,6,13,,0,,184,South Korea,4,East Asia,Daegu,Daegu,35.871435,128.601445,1,0,,
1.98807E+11,1988,7,26,,0,,184,South Korea,4,East Asia,Seoul,Seoul,37.566535,126.977969,1,0,,
1.98808E+11,1988,8,10,,0,,101,Japan,4,East Asia,Tokyo,Tokyo,35.689125,139.747742,1,0,,
1.98809E+11,1988,9,26,,0,,101,Japan,4,East Asia,Chiba,Kamagaya,35.77675,140.00079,1,0,,
1.98809E+11,1988,9,29,,0,,101,Japan,4,East Asia,Tokyo,Tokyo,35.689125,139.747742,1,0,,
1.98809E+11,1988,9,30,,0,,184,South Korea,4,East Asia,Seoul,Seoul,37.566535,126.977969,1,0,,
1.9881E+11,1988,10,3,,0,,101,Japan,4,East Asia,Tokyo,Tokyo,35.689125,139.747742,1,0,,
1.9881E+11,1988,10,3,,0,,101,Japan,4,East Asia,Tokyo,Tokyo,35.689125,139.747742,1,0,,
1.9881E+11,1988,10,3,,0,,101,Japan,4,East Asia,Tokyo,Tokyo,35.689125,139.747742,1,0,,
1.9881E+11,1988,10,14,,0,,184,South Korea,4,East Asia,Gwangju,Gwangju,35.159545,126.852601,1,0,,
1.98812E+11,1988,12,24,,0,,101,Japan,4,East Asia,Okinawa,Okinawa,26.334427,127.805583,1,0,,
1.98901E+11,1989,1,10,,0,,101,Japan,4,East Asia,Ishikawa,Ishikawa,36.594682,136.625573,1,0,,
1.98902E+11,1989,2,3,,0,,101,Japan,4,East Asia,Tokyo,Shibuya,35.689125,139.747742,1,0,,
1.98902E+11,1989,2,21,,0,,101,Japan,4,East Asia,Chiba,Narita,35.772163,140.321777,1,0,,
1.98903E+11,1989,3,5,,0,,101,Japan,4,East Asia,Tokyo,Tokyo,35.689125,139.747742,1,0,,
1.98903E+11,1989,3,7,,0,,101,Japan,4,East Asia,Chiba,Narita,35.772163,140.321777,1,0,,
1.98904E+11,1989,4,18,,0,,101,Japan,4,East Asia,Osaka,Osaka,34.693738,135.502165,1,0,,
1.98904E+11,1989,4,24,,0,,44,China,4,East Asia,Zhejiang,Ningbo,29.868336,121.54399,1,0,,
1.98904E+11,1989,4,28,,0,,101,Japan,4,East Asia,Tokyo,Tokyo,35.689125,139.747742,1,0,,
1.98904E+11,1989,4,28,,0,,101,Japan,4,East Asia,Chiba,Narashino,35.680432,140.026526,1,0,,
1.98905E+11,1989,5,30,,0,,184,South Korea,4,East Asia,Gyeonggi,Pyeongtaek,37.089532,127.032699,1,1,,
1.98906E+11,1989,6,26,,0,,44,China,4,East Asia,Shanghai,Shanghai,31.231763,121.484443,1,0,,
1.98908E+11,1989,8,7,,0,,89,Hong Kong,4,East Asia,Hong Kong,"Yau Ma Tei, Kowloon",22.311183,114.169265,1,0,,
1.98909E+11,1989,9,20,,0,,101,Japan,4,East Asia,Tokyo,Tokyo,35.689125,139.747742,1,0,,
1.98911E+11,1989,11,13,,0,,101,Japan,4,East Asia,Tokyo,Tokyo,35.689125,139.747742,1,0,,
1.98911E+11,1989,11,16,,0,,101,Japan,4,East Asia,Chiba,Unknown,35.605057,140.123306,4,0,,
1.98912E+11,1989,12,2,,0,,101,Japan,4,East Asia,Saitama,Omiya,35.906259,139.628634,1,0,,
1.98912E+11,1989,12,2,,0,,101,Japan,4,East Asia,Saitama,Omiya,35.906259,139.628634,1,0,,
1.98912E+11,1989,12,16,,0,,44,China,4,East Asia,Beijing,Beijing,39.905556,116.395833,1,0,,
1.99001E+11,1990,1,7,,0,,101,Japan,4,East Asia,Nara,nara,34.685087,135.805,1,0,,
1.99001E+11,1990,1,8,,0,,101,Japan,4,East Asia,Kyoto,Kyoto,35.011636,135.768029,1,0,,
1.99001E+11,1990,1,8,,0,,101,Japan,4,East Asia,Tokyo,Tokyo,35.689125,139.747742,1,0,,
1.99001E+11,1990,1,18,,0,,101,Japan,4,East Asia,Nagasaki,Nagasaki,32.750286,129.877667,1,0,,
1.99001E+11,1990,1,23,,0,,101,Japan,4,East Asia,Tokyo,tokyo,35.689125,139.747742,1,0,,
1.99001E+11,1990,1,23,,0,,101,Japan,4,East Asia,Tokyo,tokyo,35.689125,139.747742,1,0,,
1.99001E+11,1990,1,23,,0,,101,Japan,4,East Asia,Tokyo,tokyo,35.689125,139.747742,1,0,,
1.99001E+11,1990,1,23,,0,,101,Japan,4,East Asia,Tokyo,tokyo,35.689125,139.747742,1,0,,
1.99001E+11,1990,1,23,,0,,101,Japan,4,East Asia,Tokyo,tokyo,35.689125,139.747742,1,0,,
1.99001E+11,1990,1,23,,0,,101,Japan,4,East Asia,Tokyo,tokyo,35.689125,139.747742,1,0,,
1.99001E+11,1990,1,23,,0,,101,Japan,4,East Asia,Tokyo,tokyo,35.689125,139.747742,1,0,,
1.99002E+11,1990,2,11,,0,,101,Japan,4,East Asia,Tokyo,Takasaki,36.321909,139.003294,1,0,,
1.99002E+11,1990,2,27,,0,,101,Japan,4,East Asia,Tokyo,Tokyo,35.689125,139.747742,1,0,,
1.99003E+11,1990,3,9,,0,,201,Taiwan,4,East Asia,Taipei,Taipei,25.091075,121.559834,1,0,,
1.99003E+11,1990,3,14,,0,,101,Japan,4,East Asia,Tokyo,tokyo,35.689125,139.747742,1,0,,
1.99003E+11,1990,3,22,,0,,101,Japan,4,East Asia,Tokyo,Tokyo,35.689125,139.747742,1,0,,
1.99003E+11,1990,3,22,,0,,101,Japan,4,East Asia,Tokyo,Tokyo,35.689125,139.747742,1,0,,
1.99004E+11,1990,4,3,,0,,184,South Korea,4,East Asia,Seoul,Seoul,37.566535,126.977969,1,0,,
1.99004E+11,1990,4,15,,0,,101,Japan,4,East Asia,Kanagawa,Yokohama,35.443708,139.638026,1,0,,
1.99004E+11,1990,4,15,,0,,101,Japan,4,East Asia,Chiba,Narita,35.772163,140.321777,1,0,,
1.99004E+11,1990,4,22,,0,,101,Japan,4,East Asia,Kanagawa,Yokohama,35.443708,139.638026,1,0,,
1.99004E+11,1990,4,25,,0,,101,Japan,4,East Asia,Kanagawa,yokohama,35.443708,139.638026,1,0,,
1.99005E+11,1990,5,2,,0,,101,Japan,4,East Asia,Chiba,Narita,35.772163,140.321777,1,0,,
1.99005E+11,1990,5,11,,0,,184,South Korea,4,East Asia,Seoul,Seoul,37.566535,126.977969,1,0,,
1.99005E+11,1990,5,17,,0,,101,Japan,4,East Asia,Tokyo,Tokyo,35.689125,139.747742,1,0,,
1.99005E+11,1990,5,17,,0,,101,Japan,4,East Asia,Tokyo,Tokyo,35.689125,139.747742,1,0,,
1.99005E+11,1990,5,17,,0,,101,Japan,4,East Asia,Aichi,nagoya,35.181446,136.906398,1,0,,
1.99005E+11,1990,5,18,,0,,101,Japan,4,East Asia,Saitama,Unknown,35.856999,139.648849,4,0,,
1.99005E+11,1990,5,21,,0,,101,Japan,4,East Asia,Osaka,Osaka,34.693738,135.502165,1,0,,
1.99005E+11,1990,5,26,,0,,184,South Korea,4,East Asia,Seoul,Seoul,37.566535,126.977969,1,0,,
1.99006E+11,1990,6,4,,0,,89,Hong Kong,4,East Asia,Hong Kong,Hong Kong,22.281867,114.161326,1,0,,
1.99007E+11,1990,7,4,,0,,101,Japan,4,East Asia,Saitama,Unknown,35.856999,139.648849,4,0,,
1.99007E+11,1990,7,9,,0,,101,Japan,4,East Asia,Akita,Akita,39.720008,140.102564,1,0,,
1.99007E+11,1990,7,19,,0,,101,Japan,4,East Asia,Tokyo,Tokyo,35.689125,139.747742,1,0,,
1.99007E+11,1990,7,31,,0,,101,Japan,4,East Asia,Nara,Nara,34.685087,135.805,1,0,,
1.99007E+11,1990,7,31,,0,,101,Japan,4,East Asia,Nara,Nara,34.685087,135.805,1,0,,
1.99007E+11,1990,7,31,,0,,101,Japan,4,East Asia,Nara,Gose,34.463331,135.74024,1,0,,
1.99007E+11,1990,7,31,,0,,101,Japan,4,East Asia,Nara,Yamatotakada,34.515046,135.736392,1,0,,
1.99007E+11,1990,7,31,,0,,101,Japan,4,East Asia,Nara,Kashihara,34.509448,135.792626,1,0,,
1.99007E+11,1990,7,31,,0,,101,Japan,4,East Asia,Nara,Nara,34.685087,135.805,1,0,,
1.99007E+11,1990,7,31,,0,,101,Japan,4,East Asia,Nara,Nara,34.685087,135.805,1,0,,
1.99007E+11,1990,7,31,,0,,101,Japan,4,East Asia,Nara,Nara,34.685087,135.805,1,0,,
1.99008E+11,1990,8,15,,0,,101,Japan,4,East Asia,Tokyo,Shibuya,35.689125,139.747742,1,0,,
1.99008E+11,1990,8,20,,0,,101,Japan,4,East Asia,Chiba,Urayasu,35.689125,139.747742,1,0,,
1.99008E+11,1990,8,31,,0,,101,Japan,4,East Asia,Hyogo,Itami,34.784306,135.400947,1,0,,
1.9901E+11,1990,10,9,,0,,101,Japan,4,East Asia,Tokyo,Tokyo,35.689125,139.747742,1,0,,
1.9901E+11,1990,10,9,,0,,101,Japan,4,East Asia,Osaka,osaka,34.693738,135.502165,1,0,,
1.9901E+11,1990,10,27,,0,,101,Japan,4,East Asia,Ibaraki,Tsukuba,36.083486,140.076642,1,0,,
1.9901E+11,1990,10,28,,0,,101,Japan,4,East Asia,Tochigi,Ishibayashi,36.890196,140.008702,1,0,,
1.99011E+11,1990,11,1,,0,,101,Japan,4,East Asia,Tokyo,Tokyo,35.689125,139.747742,1,0,,
1.99011E+11,1990,11,1,,0,,101,Japan,4,East Asia,Tokyo,Tokyo,35.689125,139.747742,1,0,,
1.99011E+11,1990,11,2,,0,,101,Japan,4,East Asia,Tokyo,Tokyo,35.689125,139.747742,1,0,,
1.99011E+11,1990,11,2,,0,,101,Japan,4,East Asia,Aichi,Unknown,35.180188,136.906565,4,0,,
1.99011E+11,1990,11,2,,0,,101,Japan,4,East Asia,Tokyo,Tokyo,35.689125,139.747742,1,0,,
1.99011E+11,1990,11,5,,0,,101,Japan,4,East Asia,Unknown,Unknown,,,5,0,,
1.99011E+11,1990,11,11,,0,,101,Japan,4,East Asia,Osaka,Osaka,34.693738,135.502165,1,0,,
1.99011E+11,1990,11,12,,0,,101,Japan,4,East Asia,Tokyo,Tokyo,35.689125,139.747742,1,0,,
1.99011E+11,1990,11,12,,0,,101,Japan,4,East Asia,Tokyo,Tokyo,35.689125,139.747742,1,0,,
1.99011E+11,1990,11,12,,0,,101,Japan,4,East Asia,Tokyo,Tokyo,35.689125,139.747742,1,0,,
1.99011E+11,1990,11,12,,0,,101,Japan,4,East Asia,Tokyo,Tokyo,35.689125,139.747742,1,0,,
1.99011E+11,1990,11,12,,0,,101,Japan,4,East Asia,Tokyo,Tokyo,35.689125,139.747742,1,0,,
1.99011E+11,1990,11,12,,0,,101,Japan,4,East Asia,Tokyo,Tokyo,35.689125,139.747742,1,0,,
1.99011E+11,1990,11,12,,0,,101,Japan,4,East Asia,Tokyo,Tokyo,35.689125,139.747742,1,0,,
1.99011E+11,1990,11,12,,0,,101,Japan,4,East Asia,Kanagawa,Atsugi,35.443082,139.362489,1,0,,
1.99011E+11,1990,11,12,,0,,101,Japan,4,East Asia,Tokyo,Tokyo,35.689125,139.747742,1,0,,
1.99011E+11,1990,11,12,,0,,101,Japan,4,East Asia,Tokyo,Tokyo,35.689125,139.747742,1,0,,
1.99011E+11,1990,11,12,,0,,101,Japan,4,East Asia,Tokyo,Tokyo,35.689125,139.747742,1,0,,
1.99011E+11,1990,11,12,,0,,101,Japan,4,East Asia,Tokyo,Tokyo,35.689125,139.747742,1,0,,
1.99011E+11,1990,11,12,,0,,101,Japan,4,East Asia,Tokyo,Tokyo,35.689125,139.747742,1,0,,
1.99011E+11,1990,11,12,,0,,101,Japan,4,East Asia,Tokyo,Tokyo,35.689125,139.747742,1,0,,
1.99011E+11,1990,11,12,,0,,101,Japan,4,East Asia,Tokyo,Tokyo,35.689125,139.747742,1,0,,
1.99011E+11,1990,11,12,,0,,101,Japan,4,East Asia,Chiba,Narita,35.772163,140.321777,1,0,,
1.99011E+11,1990,11,19,,0,,101,Japan,4,East Asia,Aichi,Nagoya,35.181446,136.906398,1,0,,
1.99011E+11,1990,11,21,,0,,101,Japan,4,East Asia,Miyagi,Unknown,38.268837,140.8721,4,0,,
1.99011E+11,1990,11,21,,0,,101,Japan,4,East Asia,Yamanashi,Otsuki,35.610485,138.940028,1,0,,
1.99011E+11,1990,11,21,,0,,101,Japan,4,East Asia,Ibaraki,Ushiku,35.979375,140.149524,1,0,,
1.99011E+11,1990,11,21,,0,,101,Japan,4,East Asia,Chiba,Kimitsu,35.33045,139.902677,1,0,,
1.99011E+11,1990,11,21,,0,,101,Japan,4,East Asia,Yamanashi,Otsuki,35.610485,138.940028,1,0,,
1.99011E+11,1990,11,22,,0,,101,Japan,4,East Asia,Saitama,Omiya,35.906259,139.628634,1,0,,
1.99011E+11,1990,11,22,,0,,101,Japan,4,East Asia,Chiba,Matsudo,35.787649,139.903093,1,0,,
1.99011E+11,1990,11,22,,0,,101,Japan,4,East Asia,Iwate,Unknown,39.703619,141.152684,4,0,,
1.99011E+11,1990,11,22,,0,,101,Japan,4,East Asia,Kyoto,Kyoto,35.011636,135.768029,1,0,,
1.99011E+11,1990,11,26,,0,,101,Japan,4,East Asia,Kanagawa,Yokohama,35.443708,139.638026,1,0,,
1.99011E+11,1990,11,29,,0,,101,Japan,4,East Asia,Kyoto,Kyoto,35.011636,135.768029,1,0,,
1.99011E+11,1990,11,29,,0,,101,Japan,4,East Asia,Nara,Unknown,34.685354,135.832742,4,0,,
1.99011E+11,1990,11,29,,0,,101,Japan,4,East Asia,Nara,Unknown,34.685354,135.832742,4,0,,
1.99011E+11,1990,11,29,,0,,101,Japan,4,East Asia,Nara,Unknown,34.685354,135.832742,4,0,,
1.99011E+11,1990,11,29,,0,,101,Japan,4,East Asia,Nara,Unknown,34.685354,135.832742,4,0,,
1.99011E+11,1990,11,30,,0,,101,Japan,4,East Asia,Aichi,Unknown,35.180188,136.906565,4,0,,
1.99011E+11,1990,11,30,,0,,101,Japan,4,East Asia,Kyoto,Kyoto,35.011636,135.768029,1,0,,
1.99011E+11,1990,11,30,,0,,101,Japan,4,East Asia,Kyoto,Kyoto,35.011636,135.768029,1,0,,
1.99012E+11,1990,12,1,,0,,101,Japan,4,East Asia,Kyoto,Kyoto,35.011636,135.768029,1,0,,
1.99012E+11,1990,12,1,,0,,101,Japan,4,East Asia,Kyoto,Kyoto,35.011636,135.768029,1,0,,
1.99012E+11,1990,12,1,,0,,101,Japan,4,East Asia,Kyoto,Kyoto,35.011636,135.768029,1,0,,
1.99012E+11,1990,12,3,,0,,101,Japan,4,East Asia,Tokyo,Tokyo,35.689125,139.747742,1,0,,
1.99012E+11,1990,12,5,,0,,101,Japan,4,East Asia,Kyoto,Kyoto,35.011636,135.768029,1,0,,
1.99012E+11,1990,12,5,,0,,101,Japan,4,East Asia,Mie,Ise,34.487514,136.709336,1,0,,
1.99012E+11,1990,12,6,,0,,101,Japan,4,East Asia,Kyoto,Kyoto,35.011636,135.768029,1,0,,
1.99012E+11,1990,12,7,,0,,44,China,4,East Asia,Sichuan,Chengdu,30.658601,104.064856,1,0,,
1.99101E+11,1991,1,15,,0,,44,China,4,East Asia,Beijing,Beijing,39.905556,116.395833,1,0,,
1.99102E+11,1991,2,13,,0,,89,Hong Kong,4,East Asia,Hong Kong,Tsim Sha Tsui,22.297551,114.171948,1,0,,
1.99102E+11,1991,2,23,,0,,101,Japan,4,East Asia,Tokyo,Fuchu,35.668974,139.477661,1,0,,
1.99102E+11,1991,2,23,,0,,101,Japan,4,East Asia,Kanagawa,Yokosuka,35.281341,139.6722,1,0,,
1.99102E+11,1991,2,23,,0,,101,Japan,4,East Asia,Chiba,Narita,35.772163,140.321777,1,0,,
1.99103E+11,1991,3,1,,0,,101,Japan,4,East Asia,Nagasaki,Nagasaki,32.750286,129.877667,1,0,,
1.99103E+11,1991,3,1,,0,,101,Japan,4,East Asia,Nagasaki,Nagasaki,32.750286,129.877667,1,0,,
1.99104E+11,1991,4,8,,0,,184,South Korea,4,East Asia,Incheon,Incheon,37.456256,126.705206,1,0,,
1.99104E+11,1991,4,25,,0,,101,Japan,4,East Asia,Kanagawa,Kawasaki,35.530906,139.703051,1,0,,
1.99104E+11,1991,4,25,,0,,101,Japan,4,East Asia,Tokyo,Tokyo,35.689125,139.747742,1,0,,
1.99105E+11,1991,5,4,,0,,184,South Korea,4,East Asia,Seoul,Seoul,37.566535,126.977969,1,0,,
1.99106E+11,1991,6,9,,0,,101,Japan,4,East Asia,Osaka,Osaka,34.693738,135.502165,1,0,,
1.99106E+11,1991,6,28,,0,,184,South Korea,4,East Asia,Gwangju,Gwangju,35.159545,126.852601,1,0,,
1.99107E+11,1991,7,12,,0,,101,Japan,4,East Asia,Tokyo,Tokyo,35.689125,139.747742,1,0,,
1.99107E+11,1991,7,18,,0,,184,South Korea,4,East Asia,Gwangju,Gwangju,35.159545,126.852601,1,0,,
1.99107E+11,1991,7,21,,0,,101,Japan,4,East Asia,Tokyo,Tokyo,35.689125,139.747742,1,0,,
1.99107E+11,1991,7,22,,0,,101,Japan,4,East Asia,Tokyo,Tokyo,35.689125,139.747742,1,0,,
1.99108E+11,1991,8,16,,0,,101,Japan,4,East Asia,Tokyo,Tokyo,35.689125,139.747742,1,0,,
1.99108E+11,1991,8,16,,0,,101,Japan,4,East Asia,Tokyo,Tokyo,35.689125,139.747742,1,0,,
1.99109E+11,1991,9,7,,0,,101,Japan,4,East Asia,Kanagawa,Yokosuka,35.281341,139.6722,1,0,,
1.99109E+11,1991,9,13,,0,,101,Japan,4,East Asia,Tokyo,Tokyo,35.689125,139.747742,1,0,,
1.9911E+11,1991,10,3,,0,,201,Taiwan,4,East Asia,Taipei,Taipei,25.091075,121.559834,1,0,,
1.9911E+11,1991,10,29,,0,,101,Japan,4,East Asia,Kanagawa,Atsugi,35.443082,139.362489,1,0,,
1.99111E+11,1991,11,1,,0,,101,Japan,4,East Asia,Tokyo,Tokyo,35.689125,139.747742,1,0,,
1.99111E+11,1991,11,1,,0,,184,South Korea,4,East Asia,Seoul,Seoul,37.566535,126.977969,1,0,,
1.99111E+11,1991,11,14,,0,,184,South Korea,4,East Asia,Gwangju,Gwangju,35.159545,126.852601,1,0,,
1.99111E+11,1991,11,26,,1,30/11/1991,101,Japan,4,East Asia,Tokyo,Tokyo,35.689125,139.747742,1,0,,
1.99112E+11,1991,12,8,,0,,101,Japan,4,East Asia,Kanagawa,Yokosuka,35.281341,139.6722,1,0,,
1.99112E+11,1991,12,28,,0,,201,Taiwan,4,East Asia,Hsinchu,Hsinchu,24.804722,120.971389,1,0,,
1.99201E+11,1992,1,8,,0,,101,Japan,4,East Asia,Tokyo,Tokyo,35.689125,139.747742,1,0,,
1.99201E+11,1992,1,18,,0,,89,Hong Kong,4,East Asia,Hong Kong,Hong Kong,22.281867,114.161326,1,0,,
1.99202E+11,1992,2,1,,0,,44,China,4,East Asia,Guangdong,Guangzhou,23.129163,113.264435,1,0,,
1.99202E+11,1992,2,5,,0,,44,China,4,East Asia,Xinjiang,Urumqi,43.825645,87.616823,1,0,,
1.99202E+11,1992,2,11,,0,,101,Japan,4,East Asia,Tokyo,Tokyo,35.689125,139.747742,1,0,,
1.99202E+11,1992,2,18,,0,,101,Japan,4,East Asia,Tokyo,Tokyo,35.689125,139.747742,1,0,,
1.99202E+11,1992,2,18,,0,,101,Japan,4,East Asia,Tokyo,Tokyo,35.689125,139.747742,1,0,,
1.99202E+11,1992,2,18,,0,,101,Japan,4,East Asia,Tokyo,Tokyo,35.689125,139.747742,1,0,,
1.99202E+11,1992,2,18,,0,,101,Japan,4,East Asia,Tokyo,Tokyo,35.689125,139.747742,1,0,,
1.99202E+11,1992,2,18,,0,,101,Japan,4,East Asia,Tokyo,Tokyo,35.689125,139.747742,1,0,,
1.99203E+11,1992,3,20,,0,,101,Japan,4,East Asia,Tochigi,Ashikaga,36.340151,139.449698,1,0,,
1.99204E+11,1992,4,6,,0,,101,Japan,4,East Asia,Tokyo,Tokyo,35.689125,139.747742,1,0,,
1.99204E+11,1992,4,13,,0,,101,Japan,4,East Asia,Kanagawa,Yokohama,35.443708,139.638026,1,0,,
1.99204E+11,1992,4,28,,0,,201,Taiwan,4,East Asia,Taipei,Taipei,25.091075,121.559834,1,0,,
1.99204E+11,1992,4,28,,0,,201,Taiwan,4,East Asia,Taipei,Taipei,25.091075,121.559834,1,0,,
1.99204E+11,1992,4,28,,0,,201,Taiwan,4,East Asia,Kaohsiung,Kaohsiung,22.617778,120.301389,1,0,,
1.99204E+11,1992,4,29,,0,,201,Taiwan,4,East Asia,New Taipei,New Taipei,25,121.496111,1,0,,
1.99205E+11,1992,5,14,,0,,184,South Korea,4,East Asia,South Jeolla,Muan-gun,34.990454,126.481686,1,0,,
1.99205E+11,1992,5,17,,0,,44,China,4,East Asia,Yunnan,Kunming,25.037721,102.722202,1,0,,
1.99205E+11,1992,5,18,,0,,101,Japan,4,East Asia,Okinawa,Urasoe,26.245816,127.721799,1,0,,
1.99205E+11,1992,5,21,,0,,44,China,4,East Asia,Beijing,Beijing,39.905556,116.395833,1,0,,
1.99205E+11,1992,5,22,,0,,101,Japan,4,East Asia,Tokyo,Tokyo,35.689125,139.747742,1,0,,
1.99206E+11,1992,6,5,,0,,101,Japan,4,East Asia,Tokyo,Tokyo,35.689125,139.747742,1,0,,
1.99206E+11,1992,6,5,,0,,101,Japan,4,East Asia,Tokyo,Tokyo,35.689125,139.747742,1,0,,
1.99206E+11,1992,6,5,,0,,101,Japan,4,East Asia,Tokyo,Tokyo,35.689125,139.747742,1,0,,
1.99206E+11,1992,6,17,,0,,201,Taiwan,4,East Asia,Kaohsiung,Kaohsiung,22.617778,120.301389,1,0,,
1.99208E+11,1992,8,4,,0,,184,South Korea,4,East Asia,Gyeonggi,Uijeongbu,37.738098,127.033682,1,0,,
1.99208E+11,1992,8,11,,0,,201,Taiwan,4,East Asia,Taipei,Taipei,25.091075,121.559834,1,0,,
1.99208E+11,1992,8,25,,0,,101,Japan,4,East Asia,Tokyo,Tokyo,35.689125,139.747742,1,0,,
1.99208E+11,1992,8,29,,0,,89,Hong Kong,4,East Asia,Hong Kong,Hong Kong,22.281867,114.161326,1,0,,
1.99208E+11,1992,8,31,,0,,101,Japan,4,East Asia,Kanagawa,Okubo,35.346626,139.232842,1,0,,
1.99209E+11,1992,9,7,,0,,89,Hong Kong,4,East Asia,Hong Kong,Waglan Island,22.181944,114.303333,1,0,,
1.99209E+11,1992,9,21,,0,,101,Japan,4,East Asia,Tokyo,Tokyo,35.689125,139.747742,1,0,,
1.99209E+11,1992,9,21,,0,,101,Japan,4,East Asia,Tokyo,Tokyo,35.689125,139.747742,1,0,,
1.99209E+11,1992,9,23,,0,,184,South Korea,4,East Asia,Incheon,Incheon,37.456256,126.705206,1,0,,
1.99209E+11,1992,9,28,,0,,89,Hong Kong,4,East Asia,Hong Kong,Hong Kong,22.281867,114.161326,1,0,,
1.99209E+11,1992,9,29,,0,,101,Japan,4,East Asia,Tokyo,Tokyo,35.689125,139.747742,1,0,,
1.99209E+11,1992,9,30,,0,,201,Taiwan,4,East Asia,Taipei,Taipei,25.091075,121.559834,1,0,,
1.99209E+11,1992,9,30,,0,,201,Taiwan,4,East Asia,Taipei,Taipei,25.091075,121.559834,1,0,,
1.99209E+11,1992,9,30,,0,,201,Taiwan,4,East Asia,Taipei,Taipei,25.091075,121.559834,1,0,,
1.99209E+11,1992,9,30,,0,,201,Taiwan,4,East Asia,Taipei,Taipei,25.091075,121.559834,1,0,,
1.99209E+11,1992,9,30,,0,,201,Taiwan,4,East Asia,Taipei,Taipei,25.091075,121.559834,1,0,,
1.99209E+11,1992,9,30,,0,,201,Taiwan,4,East Asia,Taipei,Taipei,25.091075,121.559834,1,0,,
1.99209E+11,1992,9,30,,0,,201,Taiwan,4,East Asia,Taipei,Taipei,25.091075,121.559834,1,0,,
1.99209E+11,1992,9,30,,0,,201,Taiwan,4,East Asia,Taipei,Taipei,25.091075,121.559834,1,0,,
1.99209E+11,1992,9,30,,0,,201,Taiwan,4,East Asia,Taipei,Taipei,25.091075,121.559834,1,0,,
1.99209E+11,1992,9,30,,0,,201,Taiwan,4,East Asia,Taipei,Taipei,25.091075,121.559834,1,0,,
1.99209E+11,1992,9,30,,0,,201,Taiwan,4,East Asia,Taipei,Taipei,25.091075,121.559834,1,0,,
1.9921E+11,1992,10,1,,0,,101,Japan,4,East Asia,Kanagawa,Kawasaki,35.530906,139.703051,1,0,,
1.9921E+11,1992,10,1,,0,,101,Japan,4,East Asia,Yamanashi,Unknown,35.664158,138.568449,4,0,,
1.9921E+11,1992,10,2,,0,,101,Japan,4,East Asia,Tokyo,Tokyo,35.689125,139.747742,1,0,,
1.9921E+11,1992,10,3,,0,,101,Japan,4,East Asia,Chiba,Chiba,35.607221,140.10627,1,0,,
1.9921E+11,1992,10,4,,0,,101,Japan,4,East Asia,Yamagata,Tendo,38.362265,140.377886,1,0,,
1.9921E+11,1992,10,5,,0,,101,Japan,4,East Asia,Tokyo,Tokyo,35.689125,139.747742,1,0,,
1.9921E+11,1992,10,13,,0,,101,Japan,4,East Asia,Saitama,Unknown,35.856999,139.648849,4,0,,
1.9921E+11,1992,10,13,,0,,101,Japan,4,East Asia,Saitama,Unknown,35.856999,139.648849,4,0,,
1.9921E+11,1992,10,13,,0,,101,Japan,4,East Asia,Unknown,Unknown,,,5,0,,
1.9921E+11,1992,10,13,,0,,101,Japan,4,East Asia,Unknown,Unknown,,,5,0,,
1.9921E+11,1992,10,13,,0,,101,Japan,4,East Asia,Unknown,Unknown,,,5,0,,
1.9921E+11,1992,10,13,,0,,101,Japan,4,East Asia,Aichi,Komaki,35.291152,136.911979,1,0,,
1.9921E+11,1992,10,13,,0,,101,Japan,4,East Asia,Aichi,Unknown,35.180188,136.906565,4,0,,
1.9921E+11,1992,10,13,,0,,101,Japan,4,East Asia,Aichi,Nagoya,35.181446,136.906398,1,0,,
1.9921E+11,1992,10,13,,0,,101,Japan,4,East Asia,Aichi,Nagoya,35.181446,136.906398,1,0,,
1.9921E+11,1992,10,16,,0,,101,Japan,4,East Asia,Tokyo,Tokyo,35.689125,139.747742,1,0,,
1.9921E+11,1992,10,20,,0,,101,Japan,4,East Asia,Shimane,Izumo,35.367035,132.754682,1,0,,
1.9921E+11,1992,10,20,,0,,201,Taiwan,4,East Asia,Kaohsiung,Kaohsiung,22.617778,120.301389,1,0,,
1.9921E+11,1992,10,23,,0,,101,Japan,4,East Asia,Hiroshima,Miyaura,34.2482,133.000725,1,0,,
1.9921E+11,1992,10,23,,0,,101,Japan,4,East Asia,Aichi,Unknown,35.180188,136.906565,4,0,,
1.9921E+11,1992,10,30,,0,,101,Japan,4,East Asia,Tokyo,Tokyo,35.689125,139.747742,1,0,,
1.99211E+11,1992,11,28,,0,,44,China,4,East Asia,Guangdong,Guangzhou,23.129163,113.264435,1,0,,
1.99212E+11,1992,12,8,,0,,89,Hong Kong,4,East Asia,Hong Kong,Hong Kong,22.281867,114.161326,1,0,,
1.99212E+11,1992,12,16,,0,,201,Taiwan,4,East Asia,Taipei,Taipei,25.091075,121.559834,1,0,,
1.99212E+11,1992,12,18,,0,,201,Taiwan,4,East Asia,Yunlin,Yunlin,23.709557,120.431868,1,0,,
1.99212E+11,1992,12,23,,0,,89,Hong Kong,4,East Asia,Hong Kong,Hong Kong,22.281867,114.161326,1,0,,
1.99402E+11,1994,2,18,,1,18/02/1994,44,China,4,East Asia,Sichuan,Chengdu,30.658601,104.064856,1,0,,
1.99402E+11,1994,2,27,,0,,89,Hong Kong,4,East Asia,Hong Kong,Hong Kong,22.281867,114.161326,1,0,,
1.99402E+11,1994,2,28,,0,,101,Japan,4,East Asia,Tokyo,Tokyo,35.689125,139.747742,1,0,,
1.99403E+11,1994,3,7,,0,,44,China,4,East Asia,Beijing,Beijing,39.905556,116.395833,1,0,,
1.99403E+11,1994,3,7,,0,,44,China,4,East Asia,Beijing,Beijing,39.905556,116.395833,1,0,,
1.99403E+11,1994,3,9,,0,,44,China,4,East Asia,Beijing,Beijing,39.905556,116.395833,1,0,,
1.99403E+11,1994,3,9,,0,,44,China,4,East Asia,Beijing,Beijing,39.858435,116.286479,1,0,,
1.99404E+11,1994,4,1,,0,,44,China,4,East Asia,Guangdong,Shenzen,22.543099,114.057868,1,0,,
1.99404E+11,1994,4,1,,0,,101,Japan,4,East Asia,Tokyo,Sumida,35.689125,139.747742,1,0,,
1.99404E+11,1994,4,6,,0,,89,Hong Kong,4,East Asia,Hong Kong,Hong Kong,22.281867,114.161326,1,0,,
1.99405E+11,1994,5,30,,0,,101,Japan,4,East Asia,Tokyo,Tokyo,35.689125,139.747742,1,0,,
1.99406E+11,1994,6,6,,1,06/06/1994,44,China,4,East Asia,Fujian,Fuzhou,26.074508,119.296494,1,0,,
1.99406E+11,1994,6,27,,0,,101,Japan,4,East Asia,Tokyo,Matsumoto,35.689125,139.747742,1,0,,
1.99407E+11,1994,7,27,,0,,184,South Korea,4,East Asia,Gyeonggi,Seongnam,37.444917,127.138868,1,0,,
1.99408E+11,1994,8,3,,0,,201,Taiwan,4,East Asia,Taipei,Taipei,25.091075,121.559834,1,0,,
1.99408E+11,1994,8,4,,0,,184,South Korea,4,East Asia,Seoul,Seoul,37.566535,126.977969,1,0,,
1.99409E+11,1994,9,3,,0,,201,Taiwan,4,East Asia,Keelung,Keelung,25.133333,121.733333,1,0,,
1.99409E+11,1994,9,20,,0,,44,China,4,East Asia,Beijing,Beijing,39.905556,116.395833,1,0,,
1.99409E+11,1994,9,22,,0,,101,Japan,4,East Asia,Tokyo,Tokyo,35.689125,139.747742,1,0,,
1.99409E+11,1994,9,26,,0,,89,Hong Kong,4,East Asia,Hong Kong,Tai Mo Shan,22.408041,114.112762,1,0,,
1.99409E+11,1994,9,30,,0,,44,China,4,East Asia,Guangdong,Pingshizhen,25.283336,113.057516,1,0,,
1.9941E+11,1994,10,13,,0,,201,Taiwan,4,East Asia,Taichung,Taichung,24.143333,120.681389,1,0,,
1.9941E+11,1994,10,14,,0,,89,Hong Kong,4,East Asia,Hong Kong,Hong Kong,22.281867,114.161326,1,0,,
1.99411E+11,1994,11,11,,0,,101,Japan,4,East Asia,Tokyo,Setagaya,35.689125,139.747742,1,0,,
1.99411E+11,1994,11,24,,0,,101,Japan,4,East Asia,Osaka,Osaka,34.693738,135.502165,1,0,,
1.99411E+11,1994,11,26,,0,,101,Japan,4,East Asia,Kumamoto,Kumamoto,32.8031,130.707891,1,0,,
1.99412E+11,1994,12,10,,0,,44,China,4,East Asia,Sichuan,Chengdu,30.658601,104.064856,1,0,,
1.99412E+11,1994,12,13,,0,,149,North Korea,4,East Asia,Pyongyang,Pyongyang,39.031859,125.753765,1,0,,
1.99412E+11,1994,12,20,,0,,101,Japan,4,East Asia,Tokyo,Tokyo,35.689125,139.747742,1,0,,
1.99412E+11,1994,12,22,,0,,201,Taiwan,4,East Asia,Taipei,Taipei,25.091075,121.559834,1,0,,
1.99412E+11,1994,12,23,,0,,44,China,4,East Asia,Beijing,Beijing,39.905556,116.395833,1,0,,
1.99412E+11,1994,12,23,,0,,44,China,4,East Asia,Fujian,Xiamen,24.479836,118.08942,1,0,,
1.99412E+11,1994,12,30,,1,31/12/1994,201,Taiwan,4,East Asia,Taipei,Taipei,25.091075,121.559834,1,0,,
1.99412E+11,1994,12,31,,1,01/01/1995,44,China,4,East Asia,Chongqing,Wushan,31.078576,109.87605,1,0,,
1.99501E+11,1995,1,4,,0,,101,Japan,4,East Asia,Tokyo,Tokyo,35.689125,139.747742,1,0,,
1.99501E+11,1995,1,10,,0,,201,Taiwan,4,East Asia,Kaohsiung,Kaohsiung,22.617778,120.301389,1,0,,
1.99501E+11,1995,1,14,,0,,44,China,4,East Asia,Yunnan,Kunming,25.037721,102.722202,1,0,,
1.99501E+11,1995,1,19,,0,,184,South Korea,4,East Asia,Gwangju,Gwangju,35.159545,126.852601,1,0,,
1.99501E+11,1995,1,23,,0,,44,China,4,East Asia,Sichuan,Chengdu,30.658601,104.064856,1,0,,
1.99501E+11,1995,1,23,,0,,44,China,4,East Asia,Sichuan,Chengdu,30.658601,104.064856,1,0,,
1.99501E+11,1995,1,23,,0,,44,China,4,East Asia,Sichuan,Chengdu,30.658601,104.064856,1,0,,
1.99503E+11,1995,3,3,,0,,101,Japan,4,East Asia,Tokyo,Tokyo,35.689125,139.747742,1,0,,
1.99503E+11,1995,3,3,,0,,101,Japan,4,East Asia,Chiba,Narashino,35.680432,140.026526,1,0,,
1.99503E+11,1995,3,14,,0,,101,Japan,4,East Asia,Ibaraki,Ushiku,35.979375,140.149524,1,0,,
1.99503E+11,1995,3,15,,0,,101,Japan,4,East Asia,Tokyo,Tokyo,35.689125,139.747742,1,0,,
1.99503E+11,1995,3,18,,0,,201,Taiwan,4,East Asia,Taipei,Taipei,25.091075,121.559834,1,0,,
1.99503E+11,1995,3,20,,0,,101,Japan,4,East Asia,Tokyo,Tokyo,35.689125,139.747742,1,0,,
1.99503E+11,1995,3,30,,0,,101,Japan,4,East Asia,Tokyo,Tokyo,35.689125,139.747742,1,0,,
1.99504E+11,1995,4,19,,0,,101,Japan,4,East Asia,Kanagawa,Yokohama,35.443708,139.638026,1,0,,
1.99504E+11,1995,4,23,,0,,101,Japan,4,East Asia,Tokyo,Tokyo,35.689125,139.747742,1,0,,
1.99505E+11,1995,5,5,,0,,101,Japan,4,East Asia,Tokyo,Tokyo,35.689125,139.747742,1,0,,
1.99505E+11,1995,5,13,,0,,101,Japan,4,East Asia,Chiba,Narita,35.772163,140.321777,1,0,,
1.99505E+11,1995,5,15,,0,,101,Japan,4,East Asia,Kanagawa,Yokohama,35.443708,139.638026,1,0,,
1.99505E+11,1995,5,16,,0,,184,South Korea,4,East Asia,Incheon,Incheon,37.456256,126.705206,1,0,,
1.99505E+11,1995,5,16,,0,,101,Japan,4,East Asia,Tokyo,Tokyo,35.689125,139.747742,1,0,,
1.99505E+11,1995,5,22,,0,,101,Japan,4,East Asia,Tokyo,Tokyo,35.689125,139.747742,1,0,,
1.99506E+11,1995,6,0,,0,,184,South Korea,4,East Asia,Seoul,Seoul,37.566535,126.977969,1,0,,
1.99506E+11,1995,6,7,,0,,89,Hong Kong,4,East Asia,Hong Kong,Hong Kong,22.281867,114.161326,1,0,,
1.99506E+11,1995,6,13,,0,,101,Japan,4,East Asia,Tokyo,Tokyo,35.689125,139.747742,1,0,,
1.99506E+11,1995,6,21,,1,22/06/1995,101,Japan,4,East Asia,Hokkaido,Hakodate,41.768793,140.72881,1,0,,
1.99507E+11,1995,7,2,,0,,101,Japan,4,East Asia,Kanagawa,Yokohama,35.443708,139.638026,1,0,,
1.99507E+11,1995,7,3,,0,,101,Japan,4,East Asia,Kanagawa,Yokohama,35.443708,139.638026,1,0,,
1.99507E+11,1995,7,4,,0,,101,Japan,4,East Asia,Tokyo,Tokyo,35.689125,139.747742,1,0,,
1.99507E+11,1995,7,5,,0,,101,Japan,4,East Asia,Tokyo,Tokyo,35.689125,139.747742,1,0,,
1.99508E+11,1995,8,2,,0,,44,China,4,East Asia,Shanghai,Shanghai,31.231763,121.484443,1,0,,
1.9951E+11,1995,10,10,,0,,201,Taiwan,4,East Asia,Taipei,Taipei,25.091075,121.559834,1,0,,
1.9951E+11,1995,10,12,,0,,44,China,4,East Asia,Beijing,Beijing,39.905556,116.395833,1,0,,
1.9951E+11,1995,10,16,,0,,184,South Korea,4,East Asia,Seoul,Seoul,37.566535,126.977969,1,0,,
1.99512E+11,1995,12,1,,0,,201,Taiwan,4,East Asia,Taipei,Taipei,25.091075,121.559834,1,0,,
1.99512E+11,1995,12,3,,0,,44,China,4,East Asia,Guangdong,Shenzhen,22.542601,114.057612,1,0,,
1.99512E+11,1995,12,3,,0,,44,China,4,East Asia,Guangdong,Shenzen,22.543099,114.057868,1,0,,
1.99512E+11,1995,12,27,,0,,117,Macau,4,East Asia,Macau,Taipa,22.156341,113.552772,1,0,,
1.99601E+11,1996,1,6,,0,,201,Taiwan,4,East Asia,Taipei,Taipei,25.091075,121.559834,1,0,,
1.99601E+11,1996,1,21,,0,,101,Japan,4,East Asia,Tokyo,Tokyo,35.689125,139.747742,1,0,,
1.99602E+11,1996,2,10,,0,,44,China,4,East Asia,Xinjiang,Wensu,41.276777,80.238959,1,0,,
1.99603E+11,1996,3,14,,0,,44,China,4,East Asia,Hainan,Unknown,20.017378,110.349229,4,0,,
1.99603E+11,1996,3,17,,0,,117,Macau,4,East Asia,Macau,Macau,22.192266,113.547631,1,0,,
1.99603E+11,1996,3,18,,0,,44,China,4,East Asia,Guangdong,Shenzen,22.543099,114.057868,1,0,,
1.99603E+11,1996,3,22,,0,,44,China,4,East Asia,Sichuan,Chengdu,30.658601,104.064856,1,0,,
1.99603E+11,1996,3,23,,0,,117,Macau,4,East Asia,Macau,Macau,22.192266,113.547631,1,0,,
1.99604E+11,1996,4,1,,0,,117,Macau,4,East Asia,Macau,Macau,22.192266,113.547631,1,0,,
1.99604E+11,1996,4,1,,0,,117,Macau,4,East Asia,Macau,Macau,22.192266,113.547631,1,0,,
1.99604E+11,1996,4,1,,0,,117,Macau,4,East Asia,Macau,Macau,22.192266,113.547631,1,0,,
1.99604E+11,1996,4,26,,0,,101,Japan,4,East Asia,Tokyo,Tokyo,35.689125,139.747742,1,0,,
1.99604E+11,1996,4,29,,0,,44,China,4,East Asia,Unknown,Unknown,,,5,0,,
1.99605E+11,1996,5,10,,0,,44,China,4,East Asia,Xinjiang,Kashgar,39.4704,75.989755,1,0,,
1.99605E+11,1996,5,12,,0,,44,China,4,East Asia,Xinjiang Uyghur,Unknown,43.793028,87.627812,4,0,,
1.99605E+11,1996,5,15,,0,,89,Hong Kong,4,East Asia,Hong Kong,Hong Kong,22.281867,114.161326,1,0,,
1.99606E+11,1996,6,16,,0,,117,Macau,4,East Asia,Macau,Macau,22.192266,113.547631,1,0,,
1.99606E+11,1996,6,16,,0,,117,Macau,4,East Asia,Macau,Macau,22.192266,113.547631,1,0,,
1.99607E+11,1996,7,7,,0,,101,Japan,4,East Asia,Tokyo,Tokyo,35.689125,139.747742,1,0,,
1.99607E+11,1996,7,12,,0,,101,Japan,4,East Asia,Tokyo,Tokyo,35.689125,139.747742,1,0,,
1.99607E+11,1996,7,17,,0,,101,Japan,4,East Asia,Tokyo,Tokyo,35.689125,139.747742,1,0,,
1.99607E+11,1996,7,17,,0,,101,Japan,4,East Asia,Tokyo,Tokyo,35.689125,139.747742,1,0,,
1.99607E+11,1996,7,20,,0,,44,China,4,East Asia,Xinjiang Uyghur,Unknown,43.793028,87.627812,4,0,,
1.99607E+11,1996,7,20,,0,,44,China,4,East Asia,Xinjiang Uyghur,Unknown,43.793028,87.627812,4,0,,
1.99607E+11,1996,7,20,,0,,44,China,4,East Asia,Xinjiang Uyghur,Unknown,43.793028,87.627812,4,0,,
1.99607E+11,1996,7,20,,0,,44,China,4,East Asia,Xinjiang Uyghur,Unknown,43.793028,87.627812,4,0,,
1.99607E+11,1996,7,20,,0,,44,China,4,East Asia,Xinjiang Uyghur,Unknown,43.793028,87.627812,4,0,,
1.99607E+11,1996,7,20,,0,,44,China,4,East Asia,Xinjiang Uyghur,Unknown,43.793028,87.627812,4,0,,
1.99607E+11,1996,7,20,,0,,44,China,4,East Asia,Xinjiang Uyghur,Unknown,43.793028,87.627812,4,0,,
1.99607E+11,1996,7,20,,0,,44,China,4,East Asia,Xinjiang Uyghur,Unknown,43.793028,87.627812,4,0,,
1.99607E+11,1996,7,20,,0,,44,China,4,East Asia,Xinjiang Uyghur,Unknown,43.793028,87.627812,4,0,,
1.99607E+11,1996,7,20,,0,,44,China,4,East Asia,Xinjiang Uyghur,Unknown,43.793028,87.627812,4,0,,
1.99607E+11,1996,7,20,,0,,44,China,4,East Asia,Xinjiang Uyghur,Unknown,43.793028,87.627812,4,0,,
1.99607E+11,1996,7,20,,0,,44,China,4,East Asia,Xinjiang Uyghur,Unknown,43.793028,87.627812,4,0,,
1.99607E+11,1996,7,20,,0,,44,China,4,East Asia,Xinjiang Uyghur,Unknown,43.793028,87.627812,4,0,,
1.99607E+11,1996,7,20,,0,,44,China,4,East Asia,Xinjiang Uyghur,Unknown,43.793028,87.627812,4,0,,
1.99607E+11,1996,7,20,,0,,44,China,4,East Asia,Xinjiang Uyghur,Unknown,43.793028,87.627812,4,0,,
1.99607E+11,1996,7,20,,0,,44,China,4,East Asia,Xinjiang Uyghur,Unknown,43.793028,87.627812,4,0,,
1.99607E+11,1996,7,20,,0,,44,China,4,East Asia,Xinjiang Uyghur,Unknown,43.793028,87.627812,4,0,,
1.99607E+11,1996,7,20,,0,,44,China,4,East Asia,Xinjiang Uyghur,Unknown,43.793028,87.627812,4,0,,
1.99607E+11,1996,7,20,,0,,44,China,4,East Asia,Xinjiang Uyghur,Unknown,43.793028,87.627812,4,0,,
1.99607E+11,1996,7,20,,0,,44,China,4,East Asia,Xinjiang Uyghur,Unknown,43.793028,87.627812,4,0,,
1.99607E+11,1996,7,20,,0,,44,China,4,East Asia,Xinjiang Uyghur,Unknown,43.793028,87.627812,4,0,,
1.99607E+11,1996,7,20,,0,,44,China,4,East Asia,Xinjiang Uyghur,Unknown,43.793028,87.627812,4,0,,
1.99607E+11,1996,7,20,,0,,44,China,4,East Asia,Xinjiang Uyghur,Unknown,43.793028,87.627812,4,0,,
1.99607E+11,1996,7,20,,0,,44,China,4,East Asia,Xinjiang,Unknown,43.793028,87.627812,4,0,,
1.99607E+11,1996,7,20,,0,,44,China,4,East Asia,Xinjiang,Unknown,43.793028,87.627812,4,0,,
1.99607E+11,1996,7,20,,0,,44,China,4,East Asia,Xinjiang,Unknown,43.793028,87.627812,4,0,,
1.99607E+11,1996,7,20,,0,,44,China,4,East Asia,Xinjiang,Unknown,43.793028,87.627812,4,0,,
1.99607E+11,1996,7,20,,0,,44,China,4,East Asia,Xinjiang,Unknown,43.793028,87.627812,4,0,,
1.99607E+11,1996,7,20,,0,,44,China,4,East Asia,Xinjiang,Unknown,43.793028,87.627812,4,0,,
1.99607E+11,1996,7,20,,0,,44,China,4,East Asia,Xinjiang,Unknown,43.793028,87.627812,4,0,,
1.99607E+11,1996,7,20,,0,,44,China,4,East Asia,Xinjiang,Unknown,43.793028,87.627812,4,0,,
1.99607E+11,1996,7,20,,0,,44,China,4,East Asia,Xinjiang,Unknown,43.793028,87.627812,4,0,,
1.99607E+11,1996,7,20,,0,,44,China,4,East Asia,Xinjiang,Unknown,43.793028,87.627812,4,0,,
1.99607E+11,1996,7,20,,0,,44,China,4,East Asia,Xinjiang,Unknown,43.793028,87.627812,4,0,,
1.99607E+11,1996,7,20,,0,,44,China,4,East Asia,Xinjiang,Unknown,43.793028,87.627812,4,0,,
1.99607E+11,1996,7,20,,0,,44,China,4,East Asia,Xinjiang,Unknown,43.793028,87.627812,4,0,,
1.99607E+11,1996,7,20,,0,,44,China,4,East Asia,Xinjiang,Unknown,43.793028,87.627812,4,0,,
1.99607E+11,1996,7,20,,0,,44,China,4,East Asia,Xinjiang,Unknown,43.793028,87.627812,4,0,,
1.99607E+11,1996,7,20,,0,,44,China,4,East Asia,Xinjiang,Unknown,43.793028,87.627812,4,0,,
1.99607E+11,1996,7,20,,0,,44,China,4,East Asia,Xinjiang,Unknown,43.793028,87.627812,4,0,,
1.99607E+11,1996,7,20,,0,,44,China,4,East Asia,Xinjiang,Unknown,43.793028,87.627812,4,0,,
1.99607E+11,1996,7,20,,0,,44,China,4,East Asia,Xinjiang,Unknown,43.793028,87.627812,4,0,,
1.99607E+11,1996,7,20,,0,,44,China,4,East Asia,Xinjiang,Unknown,43.793028,87.627812,4,0,,
1.99607E+11,1996,7,20,,0,,44,China,4,East Asia,Xinjiang,Unknown,43.793028,87.627812,4,0,,
1.99607E+11,1996,7,20,,0,,44,China,4,East Asia,Xinjiang,Unknown,43.793028,87.627812,4,0,,
1.99607E+11,1996,7,20,,0,,44,China,4,East Asia,Xinjiang,Unknown,43.793028,87.627812,4,0,,
1.99607E+11,1996,7,20,,0,,44,China,4,East Asia,Xinjiang,Unknown,43.793028,87.627812,4,0,,
1.99607E+11,1996,7,22,,0,,201,Taiwan,4,East Asia,Kinmen,Quemoy,24.436667,118.318333,1,0,,
1.99608E+11,1996,8,5,,0,,44,China,4,East Asia,Shaanxi,Xian,34.264987,108.944269,1,0,,
1.99608E+11,1996,8,9,,0,,117,Macau,4,East Asia,Macau,Macau,22.192266,113.547631,1,0,,
1.99608E+11,1996,8,12,,0,,44,China,4,East Asia,Shandong,Sunbo,35.962798,116.685184,1,0,,
1.99608E+11,1996,8,13,,0,,184,South Korea,4,East Asia,Seoul,Seoul,37.566535,126.977969,1,0,,
1.99608E+11,1996,8,25,,0,,44,China,4,East Asia,Shanghai,Shanghai,31.231763,121.484443,1,0,,
1.99609E+11,1996,9,12,,0,,44,China,4,East Asia,Jiangxi,Guixi,28.292519,117.245497,1,0,,
1.99609E+11,1996,9,29,,0,,44,China,4,East Asia,Sichuan,Santai,31.097665,105.090611,1,0,,
1.9961E+11,1996,10,3,,0,,89,Hong Kong,4,East Asia,Hong Kong,Kwong Wah,22.315219,114.172464,1,0,,
1.9961E+11,1996,10,9,,0,,89,Hong Kong,4,East Asia,Hong Kong,Hong Kong,22.281867,114.161326,1,0,,
1.9961E+11,1996,10,18,,0,,201,Taiwan,4,East Asia,Taipei,Taipei,25.091075,121.559834,1,0,,
1.9961E+11,1996,10,24,,0,,101,Japan,4,East Asia,Chiba,Chiba,35.607221,140.10627,1,0,,
1.99611E+11,1996,11,15,,0,,44,China,4,East Asia,Guangdong,Guangzhou,23.129163,113.264435,1,0,,
1.99611E+11,1996,11,21,,0,,201,Taiwan,4,East Asia,Taichung,T'ao-yuan,24.25692,121.262332,1,0,,
1.99611E+11,1996,11,23,,0,,117,Macau,4,East Asia,Macau,Macau,22.192266,113.547631,1,0,,
1.99611E+11,1996,11,26,,0,,117,Macau,4,East Asia,Macau,Macau,22.192266,113.547631,1,0,,
1.99611E+11,1996,11,30,,0,,201,Taiwan,4,East Asia,Kaohsiung,Kaohsiung,22.617778,120.301389,1,0,,
1.99612E+11,1996,12,18,,0,,44,China,4,East Asia,Henan,Zhengzhou,34.746611,113.625355,1,0,,
1.99612E+11,1996,12,23,,0,,101,Japan,4,East Asia,Gunma,Isesaki,36.311364,139.19677,1,0,,
1.99612E+11,1996,12,25,,0,,44,China,4,East Asia,Tibet,Lhasa,29.657978,91.1011,1,0,,
1.99702E+11,1997,2,3,,0,,117,Macau,4,East Asia,Macau,Macau,22.192266,113.547631,1,0,,
1.99702E+11,1997,2,10,,0,,44,China,4,East Asia,Guangdong,Guangzhou,23.129163,113.264435,1,0,,
1.99702E+11,1997,2,11,,0,,117,Macau,4,East Asia,Macau,Macau,22.192266,113.547631,1,0,,
1.99702E+11,1997,2,11,,0,,117,Macau,4,East Asia,Macau,Macau,22.192266,113.547631,1,0,,
1.99702E+11,1997,2,11,,0,,117,Macau,4,East Asia,Macau,Macau,22.192266,113.547631,1,0,,
1.99702E+11,1997,2,11,,0,,117,Macau,4,East Asia,Macau,Macau,22.192266,113.547631,1,0,,
1.99702E+11,1997,2,17,,0,,101,Japan,4,East Asia,Kochi,Unknown,33.559706,133.531079,4,0,,
1.99702E+11,1997,2,25,,0,,44,China,4,East Asia,Xinjiang,Urumqi,43.825645,87.616823,1,0,,
1.99702E+11,1997,2,25,,0,,44,China,4,East Asia,Xinjiang,Urumqi,43.825645,87.616823,1,0,,
1.99702E+11,1997,2,25,,0,,44,China,4,East Asia,Xinjiang,Urumqi,43.825645,87.616823,1,0,,
1.99702E+11,1997,2,25,,0,,44,China,4,East Asia,Xinjiang,Urumqi,43.825645,87.616823,1,0,,
1.99703E+11,1997,3,1,,0,,44,China,4,East Asia,Xinjiang,Urumqi,43.825645,87.616823,1,0,,
1.99703E+11,1997,3,1,,0,,44,China,4,East Asia,Xinjiang,Unknown,43.793028,87.627812,4,0,,
1.99703E+11,1997,3,3,,0,,44,China,4,East Asia,Xinjiang,Yining,43.910881,81.318657,1,0,,
1.99703E+11,1997,3,6,,0,,44,China,4,East Asia,Beijing,Beijing,39.905556,116.395833,1,0,,
1.99703E+11,1997,3,7,,0,,44,China,4,East Asia,Beijing,Beijing,39.905556,116.395833,1,0,,
1.99703E+11,1997,3,10,,0,,201,Taiwan,4,East Asia,Kaohsiung,Kaohsiung,22.617778,120.301389,1,0,,
1.99703E+11,1997,3,16,,0,,44,China,4,East Asia,Beijing,Beijing,39.905556,116.395833,1,0,,
1.99703E+11,1997,3,23,,1,25/03/1997,44,China,4,East Asia,Beijing,Beijing,39.905556,116.395833,1,0,,
1.99704E+11,1997,4,7,,0,,117,Macau,4,East Asia,Macau,Macau,22.192266,113.547631,1,0,,
1.99704E+11,1997,4,8,,0,,101,Japan,4,East Asia,Chiba,Narashino,35.680432,140.026526,1,0,,
1.99704E+11,1997,4,9,,0,,44,China,4,East Asia,Xinjiang,Kuytun,44.426529,84.903267,1,0,,
1.99704E+11,1997,4,11,,0,,117,Macau,4,East Asia,Macau,Macau,22.192266,113.547631,1,0,,
1.99704E+11,1997,4,17,,0,,117,Macau,4,East Asia,Macau,Macau,22.192266,113.547631,1,0,,
1.99705E+11,1997,5,12,,0,,44,China,4,East Asia,Guangdong,Dongguan,23.135618,113.301859,1,0,,
1.99705E+11,1997,5,12,,0,,44,China,4,East Asia,Xinjiang,Unknown,43.793028,87.627812,4,0,,
1.99706E+11,1997,6,17,,0,,101,Japan,4,East Asia,Tokyo,Tokyo,35.689125,139.747742,1,0,,
1.99707E+11,1997,7,6,,0,,117,Macau,4,East Asia,Macau,Macau,22.192266,113.547631,1,0,,
1.99707E+11,1997,7,11,,0,,117,Macau,4,East Asia,Macau,Macau,22.192266,113.547631,1,0,,
1.99707E+11,1997,7,14,,0,,101,Japan,4,East Asia,Tokyo,Tokyo,35.689125,139.747742,1,0,,
1.99707E+11,1997,7,29,,0,,117,Macau,4,East Asia,Macau,Macau,22.192266,113.547631,1,0,,
1.99707E+11,1997,7,30,,0,,117,Macau,4,East Asia,Macau,Macau,22.192266,113.547631,1,0,,
1.99707E+11,1997,7,30,,0,,117,Macau,4,East Asia,Macau,Macau,22.192266,113.547631,1,0,,
1.99707E+11,1997,7,31,,0,,117,Macau,4,East Asia,Macau,Macau,22.192266,113.547631,1,0,,
1.99709E+11,1997,9,4,,0,,117,Macau,4,East Asia,Macau,Macau,22.192266,113.547631,1,0,,
1.9971E+11,1997,10,1,,0,,44,China,4,East Asia,Xinjiang,Kuytun,44.426529,84.903267,1,0,,
1.9971E+11,1997,10,4,,0,,44,China,4,East Asia,Xinjiang Uyghur,Unknown,43.793028,87.627812,4,0,,
1.99711E+11,1997,11,12,,0,,101,Japan,4,East Asia,Chiba,Narita,35.772163,140.321777,1,0,,
1.99712E+11,1997,12,8,,0,,117,Macau,4,East Asia,Macau,Macau,22.192266,113.547631,1,0,,
1.99712E+11,1997,12,15,,0,,44,China,4,East Asia,Henan,Huaiyang,33.73426,114.888501,1,0,,
1.99802E+11,1998,2,2,,0,,101,Japan,4,East Asia,Chiba,Narita,35.772163,140.321777,1,0,,"02/02/1998: A bomb attack on New Tokyo International Airport in Japan slightly injured one airport worker. Three bombs were launched from the parking lot of a nearby hotel in Narita, Chiba prefecture. The bombs exploded near the airport's cargo buildings. The ultra-leftist Revolutionary Workers Party took responsibility for the attack in letters sent to Tokyo. No one was killed in the incident."
1.99802E+11,1998,2,14,,0,,44,China,4,East Asia,Hubei,Wuhan,30.593087,114.305357,1,0,,"02/14/1998: At least 50 people were killed in an explosion on a bus in Wuhan city in the central Chinese province of Hubei. The blast rocked the bus, engulfing it in flames, damaging nearby vehicles and apartments and injuring several passersby. The exact number of casualties was unknown, and perpetrator group was not identified."
1.99805E+11,1998,5,1,,0,,117,Macau,4,East Asia,Macau,Macau,22.19328,113.548296,1,0,This incident occurred 43 miles outside of Hong Kong.,"05/01/1998: A remote bomb detonated under the car belonging to Judiciary Police Director Dr. Antonio Marques Baptista as he approached it near Hong Kong, China. The explosion caused damage to the car but no casualties. No group claimed credit for the attack which was believed to be in response to a crackdown on the Triad criminal organization."
1.99805E+11,1998,5,8,,0,,117,Macau,4,East Asia,Macau,Macao,22.192266,113.547631,1,0,,"05/08/1998: A number of Molotov cocktails were thrown at a number of vehicles and motorcycles in Macau, China. The attacks, which occurred within a two-hour period, damaged 14 vehicles and 8 motorcycles, but caused no injuries. Two shops were also affected by the fire but suffered only minor damage. The group 14 K Triad was suspected in the attack."
1.99805E+11,1998,5,8,,0,,44,China,4,East Asia,Xinjiang Uyghur,Ghulja,43.977138,81.527454,1,0,,"05/08/1998: A Chinese elementary school in Ghulje, China was attacked with an unknown chemical agent. It is unknown who committed the act, but 150 people were reported injured during the incident."
1.99805E+11,1998,5,11,,0,,117,Macau,4,East Asia,Macau,Macao,22.192266,113.547631,1,0,,"05/11/1998: A private car was set ablaze on Avenida de Horta e Costa about 3:30 am in Macau, China. The blaze, which was quickly extinguished by firemen, caused no injuries. The attack was part of a wave of similar attacks, believed to have been perpetrated by the 14 K Triad."
1.99805E+11,1998,5,11,,0,,117,Macau,4,East Asia,Macau,Macao,22.192266,113.547631,1,0,,"05/11/1998: One hour following a similar attack on a private vehicle, three cars and 15 motorcycles parked on Avenida de Venceslau de Morais in Macau, China were set ablaze. The attack was part of a wave of similar attacks, believed to have been perpetrated by the 14 K Triad."
1.99805E+11,1998,5,11,,0,,117,Macau,4,East Asia,Macau,Macao,22.192266,113.547631,1,0,,"05/11/1998: Following the arrest of eight suspects related to a string of similar attacks, a motorcycle was set ablaze near the Lan Heung Hok restaurant in Macau, China. There were no casualties reported. The attack was believed to have been perpetrated by the 14 K Triad."
1.99809E+11,1998,9,8,,0,,117,Macau,4,East Asia,Macau,Macao,22.192266,113.547631,1,0,,"09/08/1998: Fifteen people were injured in Macau, China, when an explosion went off on a parked motorcycle. The explosion was detonated as policemen and journalists crowded around the scene of a car bomb, which had gone off 20 minutes earlier. No one was killed, and no group claimed responsibility for the attack."
1.99904E+11,1999,4,20,,0,,44,China,4,East Asia,Ningxia Hui,Yinchuan,38.487194,106.230909,1,0,,"04/20/1999: Four policemen were killed in Yinchuan, Ningxia Autonomous Region, China, when a bomb, placed by unknown perpetrators, exploded."
1.99904E+11,1999,4,27,,0,,101,Japan,4,East Asia,Chiba,Narita,35.772163,140.321777,1,0,,"04/27/1999: A car exploded near the Narita Airport, in Chiba Prefecture, Japan. It was suspected that this was an attack against the airport in protest of its expansion. The perpetrators of this incident were unknown."
1.99906E+11,1999,6,24,,0,,44,China,4,East Asia,Sichuan,Chengdu,30.658601,104.064856,1,0,near the city's railway station,"06/24/1999: A bomb exploded on a bus in the southwestern city of Chengdu, China, near the railway station. One person was killed and at least fifty sustained injuries, thirty of them serious. Some believe the attack could have been perpetrated by Xinjiang separatists, as many people from the region have migrated to Chengdu to work. No substantive evidence has been found linking the attack to Islamic separatism, however. There has been tension in Xinjiang between the majority Muslim population and the minority Han Chinese."
1.99911E+11,1999,11,9,,0,,101,Japan,4,East Asia,Tokyo,Tokyo,35.689125,139.747742,1,0,,"11/09/1999: A bomb exploded in Tokyo, Japan, at the garage of Gennojo Ito, an official at Tokyo's Narita airport. Authorities believed the bomb was planted by leftist rebels opposing the airport's expansion. No casualties resulted from the incident. It was unknown who was responsible for the incident."
2.00001E+11,2000,1,0,01/04/2000,0,,101,Japan,4,East Asia,"Naka District, Ibaraki",Tokaimura,36.46667,140.56667,1,0,"Near the uranium processing plant belonging to JCO Co in Taikaimura, Japan","1/4/2000: A crude explosive device was found in a bag near the uranium processing plant belonging to JCO Co in Taikaimura, Japan. The plant was the site of Japan's worst nuclear accident. The timer on the device was not turned on so the device did not explode. There was also a notebook in the bag with the name of the perpetrator on it. Tatsufumi Oshiba was arrested for the offence. He admitted to leaving the device as well as being responsible for other incidents in the weeks leading up to the failed Taikaimura attempt. He said he was angry at JCO Co for a nuclear accident that had occurred in the area."
2.00002E+11,2000,2,15,,0,,44,China,4,East Asia,Beijing,Beijing,39.905556,116.395833,1,0,,"02/15/2000: An unidentified suicide bomber detonated his device in the Tiananmen Square in Beijing, China. The bomber was killed in the attack. Reports did not indicate if there were other injuries and/or casualties."
2.00006E+11,2000,6,6,,0,,101,Japan,4,East Asia,Tokyo,Tokyo,35.689125,139.747742,1,0,,06/06/2000: Tsugio Uchinishi sent envelopes stuffed with monazite to the Japanese Imperial Household Agency. No injuries were reported in the incident.
2.00006E+11,2000,6,6,,0,,101,Japan,4,East Asia,Tokyo,Tokyo,35.689125,139.747742,1,0,,06/06/2000: Tsugio Uchinishi sent envelopes stuffed with monazite to the Japanese Defense Ministry. No injuries were reported in the incident.
2.00006E+11,2000,6,6,,0,,101,Japan,4,East Asia,Tokyo,Tokyo,35.689125,139.747742,1,0,,06/06/2000: Tsugio Uchinishi sent envelopes stuffed with monazite to the Japanese National Public Safety Commission. No injuries were reported in the incident.
2.00006E+11,2000,6,6,,0,,101,Japan,4,East Asia,Tokyo,Tokyo,35.689125,139.747742,1,0,,06/06/2000: Tsugio Uchinishi sent envelops stuffed with monazite to the Japanese Education Ministry. No injuries were reported in the incident.
2.00006E+11,2000,6,6,,0,,101,Japan,4,East Asia,Tokyo,Tokyo,35.689125,139.747742,1,0,,06/06/2000: Tsugio Uchinishi sent envelopes stuffed with monazite to the Japanese National Police Agency. No injuries were reported in the incident.
2.00006E+11,2000,6,7,,0,,101,Japan,4,East Asia,Tokyo,Tokyo,35.689125,139.747742,1,0,,06/07/2000: Tsugio Uchinishi sent envelopes stuffed with monazite to the Japanese Science and Technology Agency. No injuries were reported in the incident.
2.00006E+11,2000,6,8,,0,,101,Japan,4,East Asia,Tokyo,Tokyo,35.689125,139.747742,1,0,,06/08/2000: Tsugio Uchinishi sent envelopes stuffed with monazite to the Japanese Agency of Natural Resources and Energy. No injuries were reported in the incident.
2.00006E+11,2000,6,8,,0,,101,Japan,4,East Asia,Tokyo,Tokyo,35.689125,139.747742,1,0,,06/08/2000: Tsugio Uchinishi sent envelopes stuffed with monazite to the Japanese Home Affairs Ministry. No injuries were reported in the incident.
2.00006E+11,2000,6,8,,0,,101,Japan,4,East Asia,Tokyo,Tokyo,35.689125,139.747742,1,0,,06/08/2000: Tsugio Uchinishi sent envelopes stuffed with monazite to the Japanese Public Security Investigation Agency. No injuries were reported in the incident.
2.00006E+11,2000,6,8,,0,,101,Japan,4,East Asia,Tokyo,Tokyo,35.689125,139.747742,1,0,,"06/08/2000: Tsugio Uchinishi sent envelopes stuffed with monazite to the Office of Japanese Prime Minister, Mr. Yoshiro Mori. No injuries were reported in the incident."
2.00007E+11,2000,7,3,,0,,101,Japan,4,East Asia,Tokyo,Fussa,35.73845,139.326932,1,0,,"07/03/2000: Two steel pipes were fired at a U.S. army base at Yokota, Tokyo Prefecture, by suspected anti-base radicals. No casualties were reported from the incident."
2.00008E+11,2000,8,2,,0,,89,Hong Kong,4,East Asia,Hong Kong,Hong Kong,22.281867,114.161326,1,0,,"08/02/2000: A group of armed mainland Chinese protestors attacked staff at Hong Kong's Immigration Tower demanding the right to live in Hong Kong, China. At least 36 people were injured, some seriously, when the protestors stabbed officials with knives and then set fire to themselves. Six arrests were made."
2.00008E+11,2000,8,26,,0,,101,Japan,4,East Asia,Tokyo,Setagaya,35.689125,139.747742,1,0,,"08/26/2000: An explosion damaged a car belonging to Transport Ministry employee, Katsuhiro (""Masahiro""] Yamaguchi, that was parked in the garage of his home in Setagaya, Japan. There were no casualties. Although no group claimed responsibility for the attack, the police suspected leftist guerillas."
2.00009E+11,2000,9,27,,0,,44,China,4,East Asia,Inner Mongolia,Baotou,40.824868,111.757895,4,1,A Xinhua Airlines flight departing from Baotou and arriving in Beijing,"9/27/2000: At least one assailant attempted to hijack a Xinhua Airlines flight midair that had departed from Baotou, Inner Mongolia, China, and was scheduled to arrive in Beijing, China. The hijacker was subdued by crew members on board and the plane safely landed in Jinan, China. None of the 143 passengers on board were injured in the attack although one pilot was wounded. The motive behind the attack is unknown."
2.00011E+11,2000,10,26,,0,,44,China,4,East Asia,Tibet,Lhasa,29.657978,91.1011,1,0,Outside of a court building in Lhasa,"10/26/2000: An explosion was reported by the Tibet Information Network (TIN) as having occurred in Lhasa, Tibet, China. No one was harmed in the explosion, believed to have taken place at a court building, and nothing was damaged. No group claimed responsibility for the attack and the motive is unknown, although TIN does note that the explosion followed the appointment of a new party secretary for Tibet."
2.00011E+11,2000,11,26,,0,,44,China,4,East Asia,Hubei,Wuhan,30.593087,114.305357,1,0,Hankou Shangdao coffee shop in Wuhan City,"11/26/2000: A waiter found an explosive device underneath a table in the Hankou Shangdao coffee shop in Wuhan City, China. After the device was relocated to a parking lot, Mao Jiantung, a bomb expert, attempted to defuse it, but it detonated during the attempt. Mao Jiantung's right hand was blown off when the device exploded. No group has claimed responsibility for the attack and the motive is unknown."
2.00011E+11,2000,11,29,,0,,89,Hong Kong,4,East Asia,New Territories,Yuen Long,22.444469,114.0258,1,0,A junction in Yuen Long in the New Territories,"11/29/2000: A bomb exploded in a private car at a junction in Yuen Long in the New Territories, Hong Kong. The driver of the car was injured in the explosion. No group has claimed responsibility for the attack and the motive is unknown."
2.00101E+11,2001,1,23,,0,,101,Japan,4,East Asia,Kanto,Tokyo,35.689125,139.747742,1,0,The victim's home in Tokyo,"1/23/2001: A bomb exploded in the garage of Toshiyuki Suzuki, a New Tokyo International Airport Authority employee, in Tokyo, Kanto, Japan. No one was hurt in the explosion; however, two cars were damaged as was the roof of the garage. Members of the Chukakuha Revolutionary Army claimed responsibility for the attack, stating it was in opposition to the construction of another runway at Narita airport."
2.00101E+11,2001,1,28,,0,,89,Hong Kong,4,East Asia,New Territories,Tuen Mun,22.39159,113.97092,1,0,A phone booth located at the junction of Tin King and Ming Kum roads,"1/28/2001: An HKT Pacific Century CyberWorks public pay-phone exploded at the junction of Tin King and Ming Kum roads, Tuen Mun, New Territories, Hong Kong. Upon investigation, authorities determined that the blast was caused by small explosives. Two men were taken into custody in connection with the Tuen Mun explosion, as well as two other phone booth explosions. The motive behind the incident is unclear."
2.00102E+11,2001,2,4,,0,,44,China,4,East Asia,Yunnan,Kunming,25.037721,102.722202,1,0,,"02/04/2001: Unknown attackers attempted to set off a bomb in the New Century Mansion department store in Kunming, capital of China's Yunnan Province. The bomb’s detonator exploded causing minor damage to the men’s restroom at the store, but failing to set off the bomb next to it. No one was hurt in the bombing. No group claimed responsibility for the attack."
2.00102E+11,2001,2,3,,0,,184,South Korea,4,East Asia,Yeongnam,Daegu,35.871435,128.601445,1,0,Outside of the Taegu Civil Stadium,"2/3/2001: A bomb hidden in a briefcase was discovered outside of the Civil Stadium in Taegu, Yeongnam, South Korea. Two individuals driving by spotted the briefcase, brought it into their van, and tried opening it. The briefcase exploded, causing minor injuries to both individuals. No group has claimed responsibility for the device."
2.00104E+11,2001,4,2,,0,,201,Taiwan,4,East Asia,Taoyuan,T'ao-yuan,24.25692,121.262332,1,0,,"04/02/2001: An unidentified assailant threw a Molotov cocktail at a school in Taoyuan, Taiwan, killing two and injuring 18 more."
2.00107E+11,2001,7,9,,0,,44,China,4,East Asia,Hubei,Wuhan,30.593087,114.305357,1,0,Qingshan district,"07/09/2001: An attempt to bomb a karaoke bar was thwarted by police in the central Chinese city of Wuhan, and four suspects were arrested. Two of the four explosive devices were found in a handbag carried by one of the suspects. Upon arrest the suspect admitted that two other criminals were hiding nearby. The report did not give any motive for the attempted bombing, and did not report any details on the four suspects."
2.00108E+11,2001,8,7,,0,,101,Japan,4,East Asia,Tokyo,Tokyo,35.689125,139.747742,1,0,,"08/07/2001: Unknown perpetrators set off an explosive device in a lot adjacent to the office of the Japanese Society for History Textbook Reform in Tokyo, Japan. A fire was started, resulting in minor property damage. No injuries resulted from this incident."
2.00109E+11,2001,9,16,,0,,201,Taiwan,4,East Asia,Yunlin,Taisi,23.700122,120.200283,1,0,,"09/16/2001: No casualties resulted when gunmen fired over twenty shots at the house of the former township head of Taihsi, Wu Cheng-ching, in Taiwan’s Yunlin County. Local police suspected that the attack was related to the upcoming year-end legislative and local government heads elections. No group claimed responsibility for the attack."
2.0011E+11,2001,10,1,,0,,101,Japan,4,East Asia,Chiba,Mutsuzawa,35.361088,140.319273,1,0,,"10/01/2001: A bomb targeted the car of a prefectural government official, Masaji Ikuta, in Mutsuzawa, Chiba Prefecture, Japan. The car received minor damage from what appeared to be made of wiring and vinyl chloride pipes. Police suspected that the device was planted by extremists opposed to the plan expansion of Narita airport in Tokyo, with which Ikuta is associated."
2.0011E+11,2001,10,14,,0,,44,China,4,East Asia,Xinjiang Uyghur,Hotan City,37.114157,79.922211,1,0,,"10/14/2001: A fire broke out in the Hotan Prefecture meteorology building in the city of Hotan in Xinjiang Autonomous Region, China. The report stated that four separate but simultaneous fires broke out after the detonation of an explosive device. The event was thought to be terrorist-related by officials."
2.00112E+11,2001,12,14,,0,,44,China,4,East Asia,Guangdong,Xiashen,21.19172,110.39807,1,0,,"12/14/2001: A bomb exploded in Xiashan neighborhood in Zhangjiang, China. Two other bombs were detonated in two other nearby neighborhoods. Two people were killed in the bombings and six were injured. It was not certain who was responsible for the attacks."
2.00112E+11,2001,12,14,,0,,44,China,4,East Asia,Guangdong,Zhanjiang,21.270689,110.359462,1,0,,"12/14/2001: A bomb exploded in Chikan neighborhood in Zhangjiang, China. Two other bombs were detonated in two other nearby neighborhoods. Two people were killed in the bombings and six were injured. It was not certain who was responsible for the attacks."
2.00112E+11,2001,12,14,,0,,44,China,4,East Asia,Guangdong,Zhanjiang,21.270689,110.359462,1,0,,"12/14/2001: A bomb exploded in Kaifaqu neighborhood in Zhangjiang, China. Two other bombs were detonated in two other nearby neighborhoods. Two people were killed in the bombings and six were injured. It was not certain who was responsible for the attacks."
2.00112E+11,2001,12,14,,0,,44,China,4,East Asia,Guangdong,Jiangmeng,22.578738,113.081901,1,0,,"12/14/2001: A bomb exploded in Fengwanli neighborhood in Jiangmen, China. This was one of three near simultaneous bombings. One person was seriously injured in the blasts. It was not certain who was responsible for the attacks."
2.00112E+11,2001,12,14,,0,,44,China,4,East Asia,Guangdong,Jiangmeng,22.578738,113.081901,1,0,,"12/14/2001: A bomb exploded in Wugangli neighborhood in Jiangmen, China. This was one of three near simultaneous bombings. One person was seriously injured in the blasts. It was not certain who was responsible for the attacks."
2.00112E+11,2001,12,14,,0,,44,China,4,East Asia,Guangdong,Jiangmeng,22.578738,113.081901,1,0,,"12/14/2001: A bomb exploded in Yingbin neighborhood in Jiangmen, China. This was one of three near simultaneous bombings. One person was seriously injured in the blasts. It was not certain who was responsible for the attacks."
2.00112E+11,2001,12,14,,0,,44,China,4,East Asia,Shaanxi,Xian,34.264987,108.944269,1,0,,"12/14/2001: An explosion ripped through a McDonald's fast food restaurant in Xian, China. Two people were killed and 27 others injured in the attack. It was not certain who was responsible for the attack. Although initial reports suggested the attack was perpetrated by a suicide-bomber, later reports indicate that police discovered a detonator and timer at the scene indicating that the perpetrator was not at the scene."
2.00112E+11,2001,12,24,,0,,44,China,4,East Asia,Shandong,Qingdao,36.06722,120.382504,1,0,,"12/24/2001: An explosion ripped through the parking lot of a French retail store, Carrefour, in Qingdao, China. Extensive damage was reported, yet no one was injured in the blast. It was not certain who was responsible for the attack."
2.00112E+11,2001,12,28,,0,,44,China,4,East Asia,Hubei,Zhongxiang,31.16782,112.588121,1,0,,"12/28/2001: A suicide-bomber blew himself up in Zhongxiang, China. One person was killed, and one injured in the attack. The motive of the bomber was not certain."
2.00202E+11,2002,2,11,,0,,101,Japan,4,East Asia,Kanagawa,Yokohama,35.443708,139.638026,1,0,,"02/11/2002: Revolutionary Force claimed responsibility for an explosion on the baseball fields of Yokohama Senior High School in Yokohama, Japan. The target of the botched rocket attack was the U.S. Navy fuel depot a few hundred meters away. In its letter to newspaper Mainichi Shimbun, the group said the attack was to be a preemptive strike against the United States."
2.00205E+11,2002,5,11,,0,,44,China,4,East Asia,Fujian,Xiamen,24.479836,118.08942,1,0,between the southern cities of Shenzhen and Xiamen,"05/11/2002: In China, a man hijacked a Xiamen Airlines plane with two knives but was overpowered in minutes. Police, who did not rule out that the man was mentally ill, also arrested a woman in Xiamen who was suspected of being an accomplice."
2.00208E+11,2002,8,6,,0,,101,Japan,4,East Asia,Chiba,Chiba,35.607221,140.10627,1,0,,"08/06/2002: A bomb blast damaged the car and roof of the house of an official of a railway company that is building a new express line for Narita airport, in Chiba Prefecture, Japan. The police suspects a group opposing the extension of the airport to be responsible for this attempt."
2.0021E+11,2002,10,2,,0,,44,China,4,East Asia,Guangxi,Guilin,25.273566,110.290195,1,0,Central Square in Guilin,"10/2/2002: An unidentified man detonated a bomb in Central Square in Guilin, Guangxi region, China. The suicide bomber died in the explosion and 18 people were injured. The specific motive behind the incident is unknown. However, the country has been on high alert during the holiday week of National Day."
2.00301E+11,2003,1,13,,0,,101,Japan,4,East Asia,Aichi,Nagoya,35.181446,136.906398,1,0,,01/13/2003: A gunshot was fired at the Nagoya branch of Chogin Chubu Credit Union in Japan’s Aichi Prefecture. No one was in the building at the time. The credit union primarily caters to Japan’s North Korean population.
2.00301E+11,2003,1,15,,0,,44,China,4,East Asia,Shaanxi,Yulin,22.636352,110.165112,1,0,"Jingbian Hotel in Jingbian county, Yulin city","1/15/2003: A bomb exploded at the Jingbian Hotel in Yulin city, Shaanxi province, China. At least one person was killed and another seven were injured in the blast that destroyed portions of the hotel and damaged surrounding buildings. The device was homemade, consisting of chemical fertilizer. No group claimed responsibility for the incident and the specific motive is unknown."
2.00302E+11,2003,2,25,,0,,44,China,4,East Asia,Beijing,Beijing,39.905556,116.395833,1,0,,"02/25/2003: At 11:55AM local time, a homemade charcoal gunpowder bomb exploded at the teachers' dining hall at Tsinghua University in Beijing. Glass shards from the blast injured six people. No one was found responsible."
2.00302E+11,2003,2,25,,0,,44,China,4,East Asia,Beijing,Beijing,39.905556,116.395833,1,0,,"02/25/2003: At 1:20PM local time, a homemade bomb exploded at a student dining all at Beijing University. Dining hall windows and a door were destroyed. The Chinese Government vowed to catch those responsible, and dramatically beefed up security around campus, as well as forbidding foreign correspondents access to local reporters' information."
2.00303E+11,2003,3,12,,0,,101,Japan,4,East Asia,Tokyo,Fussa,35.73845,139.326932,1,0,,"03/12/2003: Two projectiles were fired at the United States' Air Force Yokota base in Tokyo, Japan, causing no injuries or damage. Four days later, Kyodo News received a letter from the ""Revolutionary Army,"" claiming responsibility and that it would block Japan's dispatch of the Self-Defense Forces abroad and a U.S.-led war against Iraq. The police believe that the letter was written by the Anti-Main Stream Group of the Revolutionary Workers Association."
2.00311E+11,2003,11,17,,0,,184,South Korea,4,East Asia,Jeola,Buan,35.731566,126.733465,1,0,,"11/17/2003: Protestors turned violent in Buan, South Korea, resulting in the injury of 60 police officers and protestors. The protest was in response to a planned nuclear waste dump for the area."
2.00401E+11,2004,1,23,,0,,44,China,4,East Asia,Henan,Zhengzhou,34.746611,113.625355,1,0,,"01/23/2004: A bomb exploded at a railway station in central China, killing two people and injuring four. The bomb went off on the first floor of the ticket hall at Zhengzhou station in Henan Province. It is possible that the attack was perpetrated by a suicide bomber."
2.00403E+11,2004,3,19,,0,,201,Taiwan,4,East Asia,Tainan,Tainan,22.983333,120.183333,1,0,Chen and Lu were riding in an open car motorcade through the streets of Tainan.,"03/19/2004: Taiwanese President, Chen Shui-bian and Vice President, Annette Lu, were shot. The shooting occurred less than 24 hours before the presidential election between Chen and challenger Lien Chan, of the KMT. Chen and Lu were leading a motorcade through Tainan City, when Chen was struck and wounded by a  bullet to the stomach. Lu also suffered a knee cap injury from a second bullet. The two were taken to the hospital, but were released shortly after and the election was not postponed. In August 2005 it was determined that the assassination attempt was construed by unemployed citizen, Chen Yi-Hsun, who blamed Chen for his financial difficulties. However, Chen’s adversaries still speculate that the event was a planned sympathy ploy to gain votes."
2.00407E+11,2004,7,17,,0,,44,China,4,East Asia,Guangdong,Shenzen,22.543099,114.057868,1,0,,"07/17/2004: Two people were killed and two more wounded in an explosion at the Guanlan Movie Theater Square in Shenzhen, China. The motive for the bombing was not clear. It was reported that the explosive was a 40-centimeter long, tube-shaped metal device, which was similar to a detonator and filled with steel balls inside. Authorities did not detail how the explosive device was ignited."
2.00412E+11,2004,12,10,,0,,201,Taiwan,4,East Asia,Taipei,Jhongjheng,25.042141,121.519872,1,0,,"12/10/2004: A van filled with explosive gas canisters exploded near the main train terminal in Taipei, Taiwan. There were no injuries and no group claimed responsibility for the attack."
2.00501E+11,2005,1,20,,0,,44,China,4,East Asia,Xinjiang Uyghur,Between Usu City and Karamay City,45.579889,84.889207,3,0,Between Karamay City and Usu City,01/20/2005: Uighur Islamic separatists were suspected to have bombed a bus traveling from Karamay City to Usu City in China’s Xinjiang region. 12 people were killed and two others injured in the bombing. No group claimed responsibility for the attack.
2.00511E+11,2005,11,7,,0,,89,Hong Kong,4,East Asia,Hong Kong,Hong Kong,22.281867,114.161326,1,0,,"11/07/2005: One woman was injured when a bomb disguised as a package was sent to the Ming Mao newspaper in Hong Kong, China. The bomb was delivered with a bouquet of flowers and a note complaining about an unspecified article published the previous month. Also in the note, the perpetrator demanded that 30 million Honk Kong dollars be transferred to the bank account of a charity."
2.00605E+11,2006,5,20,,0,,184,South Korea,4,East Asia,Seoul,Seoul,37.566535,126.977969,1,0,The attack occurred in Seoul's commercial district.,"05/20/2006: Perpetrator, Ji Choong-ho attacked the chairwoman of the main opposition Grand National Party, Park Geun-Hye, with a box cutter knife as she was campaigning in Seoul, South Korea. Park suffered a ten-centimeter cut on her face that required sixty stitches. Ji reportedly stated that he performed this action to ‘save democracy.’"
2.00802E+11,2008,2,16,,0,,201,Taiwan,4,East Asia,Taipei,Taipei,25.091075,121.559834,1,0,,"02/16/2008: A former Taiwanese lawmaker, Lee Sen-zong, was abducted by two unknown assailants, forced into their vehicle, then shot as he escaped from their vehicle as the perpetrators pulled over to avoid police suspicion. Police have questioned two suspects in this abduction attempt, who maintain that they did not specifically choose Mr. Sen-zong for political reasons, but randomly because he looked wealthy. Mr. Sen-zong survived the attack."
2.00803E+11,2008,3,5,,0,,44,China,4,East Asia,Shaanxi,Xian,34.264987,108.944269,1,0,,"03/05/2008: Ten travel agents, including an Australian national, were taken hostage as a would be suicide bomber hijacked a bus in Xian, China. The man identified as Xia Tao, released most of the hostages soon after boarding the bus but the tour guide and one of the hostages remained as hostages. Shortly after, a Chinese sniper shot dead the captor. His motive wasn't clear."
2.00803E+11,2008,3,13,,0,,44,China,4,East Asia,Guangxi,Qinzhou,36.684528,118.479622,1,0,,"03/13/2008: Two people were killed in an explosion at a bar in Qinzhou, China. The blast was caused by what police described as a ""man-made device"". Thirty-six people were also injured in the blast. Police did not find any possible motive for the blast, however, some believe in the area that Muslim separatists are behind the explosion."
2.00804E+11,2008,4,5,,0,,44,China,4,East Asia,Tibet,Gartok,31.719386,80.287588,1,0,"The bombing attack took place n an un-named village near the city of Qamdo, Tibet (Xizang) province, China.","04/05/2008: On Saturday, an IED composed of home-made explosives detonated in an un-named village near the city of Qamdo, Tibet (Xizang) province, China. The blast, whose target was not disclosed, caused property damage but resulted in no casualties. Sixteen monks, who all claimed responsibility for this and two other bombings, were arrested by police on 05/12/2008 and 05/13/2008 in connection with the bombing attacks."
2.00804E+11,2008,4,8,,0,,44,China,4,East Asia,Tibet,Gartok,31.719386,80.287588,1,0,"The bombing attack took place n an un-named village near the city of Qamdo, Tibet (Xizang) province, China.","04/08/2008: On Tuesday, an IED composed of home-made explosives detonated in an un-named village near the city of Qamdo, Tibet (Xizang) province, China. The blast, whose target was not disclosed, caused property damage but resulted in no casualties. Sixteen monks, who all claimed responsibility for this and two other bombings, were arrested by police on 05/12/2008 and 05/13/2008 in connection with the bombing attacks."
2.00805E+11,2008,5,5,,0,,44,China,4,East Asia,Shanghai,Shanghai,31.231763,121.484443,1,0,"The attack took place in the Yangpu district of Shanghai, China.","05/05/2008: On Monday at 0900, in Yangpu district of Shanghai, China, an assailant set fire to a passenger bus, killing three civilians, injuring 12 others, and damaging the bus. The East Turkistan Islamic Movement claimed responsibility."
2.00806E+11,2008,6,11,,0,,44,China,4,East Asia,Zhejiang,Yiwu,29.306841,120.075058,1,0,The attack took place in a public square in Yiwu.,"06/11/2008: On Wednesday around 2045, an explosion of a man-made bomb occurred at a public square, killing one and injuring 35 in Yiwu, Zhejiang, China. The public square was a well known trading hub and gathering place for migrant workers in Yiwu city. No group claimed responsibility."
2.00807E+11,2008,7,14,,0,,101,Japan,4,East Asia,Okinawa,Urasoe,26.245816,127.721799,1,0,The attack took place at the US Consulate general compound.,"07/14/2008: On Monday early in the morning, a Molotov cocktail was tossed into the garden of the US Consulate General compound in Urasoe, Okinawa, Japan.  There were no injuries or damage to the building, according to police.  The explosive hit the concrete of the garden behind the building and burned 30 square centimeters of the nearby lawn at around 1:15 a.m., though the fire soon burned out.  A small black motorbike was seen at the time the Molotov cocktail was thrown, though there were no claims of reponsibility."
2.00807E+11,2008,7,21,,0,,44,China,4,East Asia,Yunnan,Minshan,25.046078,102.653562,1,0,"The bombing attack took place aboard a Chinese bus at the Minshan bus stop in Kunming, Yunnan province, China.","07/21/2008: On Monday morning at 08:10, a bomb equipped with ammonium nitrate and a time-delay detonator exploded aboard a Chinese bus at the Minshan bus stop in Kunming, Yunnan province, China. This was the second of two bomb blasts which took place within 60 minutes on board Chinese buses in Kunming and killed a total of three civilians and wounded 14. Some residents received phone text messages in the early hours of Monday, warning Kunming residents to avoid buses hours before the bomb explosions took place. The Kunming blasts came less than three weeks prior to the Beijing Olympics and two days after Yunnan police opened fire and killed two rubber farmers in the Menglian province during a clash that also saw 41 police officers injured. On 08/04/2008, the Turkistan Islamic Party (TIP) released a video claiming responsibility for the double bomb blasts, although Chinese authorities rejected the claim."
2.00807E+11,2008,7,21,,0,,44,China,4,East Asia,Yunnan,Kunming,25.037721,102.722202,1,0,"The bombing attack took place aboard a Chinese bus at the Panjiawan bus stop in Kunming, Yunnan province, China.","07/21/2008: On Monday morning at 07:10, a bomb equipped with ammonium nitrate and a time-delay detonator exploded aboard a Chinese bus at the Panjiawan bus stop in Kunming, Yunnan province, China. This was the first of two bomb blasts which took place within 60 minutes on board Chinese buses in Kunming and killed a total of three civilians and wounded 14. Some residents received phone text messages in the early hours of Monday, warning Kunming residents to avoid buses hours before the bomb explosions took place. The Kunming blasts came less than three weeks prior to the Beijing Olympics and two days after Yunnan police opened fire and killed two rubber farmers in the Menglian province during a clash that also saw 41 police officers injured. On 08/04/2008, the Turkistan Islamic Party (TIP) released a video claiming responsibility for the double bomb blasts, although Chinese authorities rejected the claim."
2.00808E+11,2008,8,4,,0,,44,China,4,East Asia,Beijing,Qinhuangdao,39.935377,119.600492,1,0,The incident occured at the Qinhuangdao Stadium.,"08/04/2008: On Monday, at an unspecified time, in Beijing, China, a suspected improvised explosive device was reported to have been found in the Qinhuangdao Stadium where the Olympic football matches were due to be held. The centre had reportedly already been swept but the device was found later under a seat. There were no reported casualties. There were no claims of responsibility."
2.00808E+11,2008,8,4,,0,,44,China,4,East Asia,Xinjiang Uyghur,Kashgar,39.4704,75.989755,1,0,Near the entrance to the Yijin Hotel.,"08/04/2008: On Monday, in Kashgar, Xinjiang, China, two assailants drove a truck into a group of policemen jogging near the barracks. When the truck crashed, the assailants attacked the police with explosives described inconsistently as grenades or homemade bombs. Sixteen police officers were killed and 16 others were injured. One of the assailants was also injured. The assailants were identified as taxi driver Kurbanjan Hemit, 28, and vegetable vendor Abdurahman Azat, 33. The Eastern Turkistan Islamic Movement claimed responsibility for the attack. Sources also attributed the incident to the Turkestan Islamic Party."
2.00808E+11,2008,8,9,,0,,44,China,4,East Asia,Beijing,Beijing,39.905556,116.395833,1,0,The incident occured at an unspecified Beijing landmark.,"08/09/2008: On Saturday, at an unknown time, in Beijing, China, a knife-wielding assailant attacked an American family killing one person and wounding another. There were no claims of responsibility made."
2.00808E+11,2008,8,9,,0,,44,China,4,East Asia,Shanghai,Laoximen,31.220379,121.482907,1,0,The incident occured at the Shanghai Public Security Bureau.,"08/09/2008: On Saturday, at an unspecified time, in Shanghai, China, an improvised explosive device was recovered from outside the Shanghai Public Security Bureau. The device was found on a vehicle parked outside the bureau. It was not clear who was responsible. There were no reported casualties."
2.00808E+11,2008,8,10,,0,,44,China,4,East Asia,Xinjiang Uyghur,Kuqa,41.717906,82.962016,1,0,The incident occured at the Public security bureau.,"08/10/2008: On Sunday, at an unknown time, in Kuqa, Xinjiang uygur, china, a group of militants drove a tricycle loaded with explosives into a public security bureau. One militant was shot by police, another blew himself up, and the other two were arrested. The attack was perpetrated by the Eastern Turkistan Islamic Movement."
2.00808E+11,2008,8,12,,0,,44,China,4,East Asia,Xinjiang Uyghur,Yamanya,39.438028,76.450035,1,0,The incident occured at a police checkpoint.,"08/12/2008: On Tuesday, at an unknown time, in Yamanya, Xinjiang uygur, China, three security officers were killed and a fourth was injured during a stabbing attack at a checkpoint. The incident is linked to the Eastern Turkistan Islamic Movement."
2.00808E+11,2008,8,13,,0,,44,China,4,East Asia,Beijing,Qinhuangdao,39.935377,119.600492,1,0,The incident occured at a building in the Qinhuangdao economic and technological development zone near Beijing.,"08/13/2008: On Wednesday, at an unknown time, in Beijing, China, a suspected improvised explosive device reportedly functioned in a building in the Qinhuangdao economic and technological development zone. Two people were reportedly killed in the incident. Olympic organizers stated that the incident was related to production activities. The two people killed are thought to have worked for the Changpu company. There were no claims of responsibility."
2.00808E+11,2008,8,15,,0,,44,China,4,East Asia,Shanghai,Jiading,31.375602,121.2653,1,0,The incident occured at the Zhen Xin Commercial Arcade in Jiading district of Shanghai.,"08/152008: On Friday, at an unspecified time, in Shanghai, China, an improvised explosive device was recovered from Zhen Xin Commercial Arcade in the Jiading district. The device was later rendered safe. A man was detained in connection with the incident. Nobody claimed the responsibility. There were no reported casualties."
2.00808E+11,2008,8,17,,0,,44,China,4,East Asia,Beijing,Beijing,39.905556,116.395833,1,0,The incident occured at the Baimiao Public Security Checkpoint.,"08/17/2008: On Sunday, at an unspecified time, in Beijing, China, a truck passing through a checkpoint exploded into flames, injuring 20 people. There were no claims of responsibility."
2.00808E+11,2008,8,27,,0,,44,China,4,East Asia,Xinjiang Uyghur,Kizilboyi,39.702547,75.187923,1,0,The incident occured at a corn field in Kizilboyi town.,"08/27/2008: On Wednesday, at around 2120, in in Kizilboyi town, Kashi Prefecture, Xinjiang province, unidentified attackers, armed with knives, ambushed a group of policemen as they passed a corn field. One police officer, and a police assistant were killed, and five others were injured. There were no claims of responsibility."
2.00808E+11,2008,8,30,,0,,44,China,4,East Asia,Heilongjiang,Harbin,45.742012,126.618326,1,0,The incident occured on Xianfeng road.,"08/30/2008: On Saturday, at an unknown time, in  Harbin, Heilongjiang, China, a bus exploded while traveling along the Xianfeng road, injuring two persons. There were no claims of responsibility. The entire bus was destroyed as a result of the fire."
2.00809E+11,2008,9,1,,0,,44,China,4,East Asia,Hunan,Chenxi,28.006343,110.183928,1,0,"The bombing attack took place at a public plaza in Chenxi, Hunan province, China.","09/01/2008: On Monday, one civilian was killed and five others wounded when unknown assailants detonated a bomb in a public plaza in Chenxi, Hunan, China. No claim of responsibility was made for the incident."
2.00809E+11,2008,9,12,,0,,101,Japan,4,East Asia,Kanagawa,Yokosuka,35.281341,139.6722,1,0,"The rocket attack took place at the United States Naval Base in Yokosuka, Kanagawa, Japan.","09/12/2008: On Friday morning at 1030, unknown assailants fired two rocket propelled bombs at the United States Naval Base in Yokosuka, Kanagawa, Japan. The blast slightly damaged a residence near the base but caused no casualties. No claim of responsibility was made for the incident."
2.0081E+11,2008,10,13,,0,,101,Japan,4,East Asia,Shikoku,Tokushima,34.07027,134.554844,1,0,"The blasts occurred at the Soka Gakkai cultural hall and the Japan-China Friendship Association housing building in Tokushima, Shikoku, Japan.","10/13/2008: On Monday, a man detonated explosives at the cultural hall of Soka Gakkai and a Japan-China Friendship Association housing building in Tokushima, Shikoku, Japan. No injuries were reported in the blasts but doors, windows and ceilings were damaged. Police arrested Takaaki Hori in connection to the attacks. Hori used firecrackers to make the explosives at his home and claimed responsibility for the attack at a press building."
2.00812E+11,2008,12,13,,0,,89,Hong Kong,4,East Asia,Hong Kong,Mong Kok,22.32047,114.171905,1,0,"The attack took place the Sai Yeung Choi Street South and Shantung Streets of Mong Kok district, Hong Kong.","12/13/2008: On Saturday evening, at 1700, two large plastic bottles carrying acid were hurled into the Sai Yeung Choi Street South and Shantung Streets of Mong Kok district, Hong Kong.  A reported 46 persons were injured in the attack. The bottles were reportedly thrown from above. The two white bottles, each with a capacity of about 750ml, were kicked by pedestrians after they landed, making it more difficult to determine from where they had been thrown. Police officers with shields and helmets searched the Chung Kiu Commercial Building and other buildings near the scene, but five hours after the attack they had still not found any suspects. The injured had been treated in a hospital and had been released by 2200. No group claimed responsibility."
2.00902E+11,2009,2,22,,0,,101,Japan,4,East Asia,Fukuoka,Fukouka,33.580412,130.396361,1,0,"The attack took place at the eastern entrance of the Japan Broadcasting Corporation (NHK), Fukuoka.","On 2/22/2009: On Sunday afternoon around 1730, an unidentified man placed a suspicious bag at the east entrance of the regional office building of Japan Broadcasting Corporation (NHK) in Fukuoka.  An explosion occurred shortly after damaging the building, but causing no casualities. Investigators recovered a polyethylene tank with gasoline at the site. No group claimed responsibility for the attack."
2.00903E+11,2009,3,16,,0,,44,China,4,East Asia,Tibet,Ganzi,31.622841,99.992607,1,0,The incident occurred at a police station in Ganzi in Sichuan.,"03/16/2009: On Monday just after midnight, a bomb was hurled into police station in a predominantly Tibetan area of western China, in Ganzi, Sichuan, China. The police station was damaged. No casualties were reported. No group claimed responsibility."
2.00903E+11,2009,3,19,,0,,44,China,4,East Asia,Beijing,Chongqing,29.56301,106.551557,1,0,The attack took place in Chongqing.,"03/19/2009: On Thursday night, in Chongqing, China, armed assailants fired upon and killed a soldier. The assailants also stole the victim's machine gun. No group claimed responsibility, although authorities suspected Tibetan separatists were responsible."
2.00904E+11,2009,4,1,,0,,44,China,4,East Asia,Xinjiang Uyghur,Urumqi,43.825645,87.616823,1,0,The attack took place in Urumqi.,"04/01/2009: On Wednesday afternoon at 1410, a suicide bomber detonated an improvised explosive device in an office building located in Urumqi, Xinjiang province, killing himself and injuring two others. The bomber, Han Wushun, demanded unpaid wages from Xinjiang Beixin Road and Bridge Construction, and had stated that the bomb would detonate if he wasn't paid. The injured men, Yang Tao and Lu Jianzhong, were attempting to escape as the bomb detonated. Yang's face and Lu's hands were injured. No group has claimed responsibility."
2.00905E+11,2009,5,16,,0,,44,China,4,East Asia,Hong Kong,Mong Kok,22.32047,114.171905,1,0,The attack occurred a building into crowds of shoppers in the Mong Kok district.,"05/16/2009: On Saturday, thirty people were treated for injuries in Hong Kong after they were splashed by a corrosive liquid. Two bottles of what is thought to be acid were either thrown or fell from a building into crowds of shoppers in the Mong Kok district. Those who received medical help - 14 women and 16 men - suffered burns to the legs, arms and faces. No groups claimed responsibility."
2.00906E+11,2009,6,8,,0,,44,China,4,East Asia,Hong Kong,Mong Kok,22.32047,114.171905,1,0,"The attack took place on Nelson Street and Sai Yeung Choi Street in the Mong Kok district, Hong Kong, China.","06/08/2009: On Monday evening at 1950, on Nelson Street and Sai Yeung Choi Street in the Mong Kok district, Hong Kong, China, a bottle containing corrosive liquid, acid, was thrown from the top of a building, injuring 24 pedestrians. No group claimed responsibility."
2.00907E+11,2009,7,5,,0,,44,China,4,East Asia,Xinjiang Uyghur,Urumqi,43.825645,87.616823,1,0,"The attack took place in the streets of Urumqi, Xinjiang uygur, China.","07/05/2009: On Sunday, Muslim Uighurs rampaged through the streets and attacked Han Chinese in Urumqi, the capital of China's north-west Xinjiang region. The protestors began attacking ethnic Han pedestrians, burning vehicles and attacking buses with batons and rocks. Sources report that protestors from the Uighur Muslim ethnicity took to the street carrying knives, wooden batons, bricks and stones. Updated reports maintain a death toll of 184, 137 of which were Han Chinese, 46 Uighur, and one of Hui ethnicity. The number of people injured in ethnic violence in China's Urumqi has risen to 1,650. Reports did not say whether any of the dead were killed by security forces."
2.00909E+11,2009,9,9,,0,,44,China,4,East Asia,Xinjiang Uyghur,Urumqi,43.825645,87.616823,1,0,The attack took place in Urumqi.,"09/09/2009: On Wednesday, in Urumqi, Xinjiang Uyghur, China, Police reported 45 suspects had attacked people with hypodermic needles in the past few days. There was a total of 531 assaults reported. No group claimed responsibility."
2.01008E+11,2010,8,19,,0,,44,China,4,East Asia,Xinjiang Uyghur,Aksu,41.168779,80.260605,1,0,"The attack took place on a bridge in Aksu City, Xinjiang, China.","08/19/2010: On Thursday morning at 1030, on a bridge in Aksu City, Xinjiang, China, a three wheeled vehicle packed with explosives was driven into a crowd. Seven people were killed and 14 others were injured. Police detained the injured suspect, a member of Xinjiang's Uighur minority, at the site of the blast. The attack caused an unknown amount of property damage. No group claimed responsibility, but it was suspected that Uighur ethnic group was responsible."
2.01107E+11,2011,7,30,,0,,44,China,4,East Asia,Xinjiang Uyghur,Kashgar,39.4704,75.989755,1,0,"The attack took place near a market in Kashgar, Xinjiang, China","07/30/2011: On Saturday night about 2300, in Kashgar, Xinjiang, China, unidentified militants detonated two improvised explosive devices. One explosion came from a minivan and the other was heard almost simultaneously, originating from the nearby market. It is undetermined if the attack resulted in any casualties, and the attack resulted in an unknown amount of property damages to the van and market. No group claimed responsibility, but the ethnic Uighur militants are suspected of being responsible for the attack."
2.01107E+11,2011,7,30,,0,,44,China,4,East Asia,Xinjiang Uyghur,Kashgar,39.4704,75.989755,1,0,"The attack took place in Silk Road City in Kashgar, Xinjiang, China.","07/30/2011: On Saturday night around 0000 midnight, in the Silk Road City in Kashgar, Xinjiang, China, two suspected armed Uighur militants ambushed a truck and killed its driver before driving the vehicle into a group of bystanders, where they attacked a group of people with knives, killing six more and injuring another 22. One of the assailants was killed by a resulting mob, and the other was detained and handed over to security forces. No group claimed responsibility for this attack, but Uighur militants are suspected."
2.01107E+11,2011,7,31,,0,,44,China,4,East Asia,Xinjiang Uyghur,Kashgar,39.4704,75.989755,1,0,"The attack took place at a restaurant in Silk Road City in Kashgar, Xinjiang, China.","07/31/2011: On Sunday afternoon, in Silk Road City in Kashgar, Xinjiang, China, a group of suspected Uighur militants attacked and killed a restaurant owner and waiter before setting fire to the restaurant. The assailants then stabbed to death another four people and injuring 10 others. Police officials were reported to be among the casualties. The attack resulted in an unknown amount of property damage to the restaurant. Five assailants were killed and another four detained following the incident. No group claimed responsibility for the attack and police believe that the leaders of the group behind the attack were trained in Pakistan at a camp of the separatist East Turkestan Islamic Movement (ETIM)."
2.0111E+11,2011,10,27,,0,,44,China,4,East Asia,Tibet,Qamdo,31.140969,97.17202,1,0,"The attack occurred inside a local government building in Qamdo, Tibet, China.","10/27/2011: On Thursday, in Qamdo, Tibet, China, an improvised explosive device (IED) exploded inside a local government building, injuring an unknown number of people and causing an unknown amount of damage to the building. The IED was planted by unidentified militants. A graffiti exclaiming ""Tibet's Independence"" had been left behind on the building's walls and pamphlets entitled ""Free Tibet"" were left at the scene. No group has claimed responsibility."
2.01202E+11,2012,2,28,,0,,44,China,4,East Asia,Xinjiang,Yeching,37.882919,77.413795,1,1,"Incident occurred on Xingfu St. outside of the city in Yeching County, in Kashgar Prefecture","02/28/2012: Assailants attacked civilians with knives and hatchets at a market outside Yeching town, Xinjiang province, China. Twenty-two people, including seven assailants, were killed, while 14 other people were injured in the assault. Uighur separatists claimed responsibility for the incident. The Uighur minority had previously complained about state discrimination and policies that put them at an economic disadvantage. Most of the victims were part of the Han majority."
2.01205E+11,2012,5,10,,0,,44,China,4,East Asia,Yunnan,Zhaotong,27.338257,103.717465,1,0,,"05/10/2012: An explosive device in a backpack detonated in a government demolition office in Zhaotong city, Yunnan province, China. Three people, including the bomber, were killed, and at least 14 people were injured in the blast. No group claimed responsibility for the attack. On August 20, 2012, officials confirmed that there was no suicide bomber; the assailants tricked the man into carrying the explosives into the office."
2.01206E+11,2012,6,29,,0,,44,China,4,East Asia,Xinjiang,Hotan,37.114157,79.922211,1,0,,"06/29/2012: Six assailants attempted to hijack an airborne Tianjin Airlines flight while en route from Hotan to Urumqi, Xinjiang Uighur Autonomous region, China. The hijacking was foiled when the six assailants were overwhelmed by the plane's passengers and crew members. At least 10 people sustained injuries as a result of the incident. No group claimed responsibility for the incident; however, officials attribute the attack to Uighur separatists."
2.0121E+11,2012,10,1,,0,,44,China,4,East Asia,Xinjiang,Kargilik,37.883071,77.413693,1,0,,"10/01/2012: A potential suicide bomber drove a motorcycle into a border guard post in Kargilik, Xinjiang, China. No information regarding the exact number of casualties is available; however, sources noted that there were some fatalities and injuries linked to the attack. No group claimed responsibility for the incident."
2.01303E+11,2013,3,9,,0,,44,China,4,East Asia,Xinjiang,Hotan,37.105643,79.944234,1,0,The incident took place in the Gujiang Bage area of the city.,"03/09/2013: Assailants attacked a police station with a gasoline bomb in Hotan prefecture, Xinjiang Uyghur Autonomous Region, China. Prior to igniting the device, the perpetrators had placed nail strips at the entrance of the station to prevent officers from pursuing them. It is unknown if the attack caused any casualties or damage to the station. No group claimed responsibility for the incident."
2.01304E+11,2013,4,12,,0,,201,Taiwan,4,East Asia,Hsinchu,Hsinchu,24.803596,120.964398,1,0,,"04/12/2013: A time bomb was discovered and safely defused on a Taiwan High Speed Rail Corporation train in Hsinchu city, Hsinchu county, Taiwan. This was one of two related bomb attacks in the area carried out by the same individuals on this day. No group claimed responsibility for the incident; however, Hu Tsung-hsian and Chu Ya-dong were arrested on April 16th, 2013 in connection with the incident."
2.01304E+11,2013,4,12,,0,,201,Taiwan,4,East Asia,New Taipei,New Taipei,24.9667,121.433,1,0,Incident occurred in Tucheng area of city,"04/12/2013: Two suitcase bombs were discovered and safely defused in the office of Taiwanese legislator Lu Chia-chen in Tucheng area, New Taipei City, New Taipei City special municipality, Taiwan. This was one of two related bomb attacks in the area carried out by the same individuals on this day. No group claimed responsibility for the incident; however, Hu Tsung-hsian and Chu Ya-dong were arrested on April 16th, 2013 in connection with the attack."
2.01306E+11,2013,6,26,,0,,44,China,4,East Asia,Xinjiang,Lukqun,42.864288,90.218627,2,0,Incident occurred in the Shanshan county.,"06/26/2013: Assailants attacked a police station in Lukqun township, Xinjiang province, China. This was one of six related attacked in the township on this day. Across the six attacks, 35 people, including 11 assailants, were killed and at least 21 people, including five assailants, were wounded. No group claimed responsibility for this attack."
2.01306E+11,2013,6,26,,0,,44,China,4,East Asia,Xinjiang,Lukqun,42.864291,90.218627,2,0,Incident occurred in Shanshan county.,"06/26/2013: Assailants attacked the Special Patrol Squadron office in Lukqun township, Xinjiang province, China. This was one of six related attacked in the township on this day. Across the six attacks, 35 people, including 11 assailants, were killed and at least 21 people, including five assailants, were wounded. No group claimed responsibility for this attack."
2.01306E+11,2013,6,26,,0,,44,China,4,East Asia,Xinjiang,Lukqun,42.864291,90.218627,2,0,Incident occurred in Shanshan county.,"06/26/2013: Assailants attacked the building of the government township in Lukqun township, Xinjiang province, China. This was one of six related attacked in the township on this day. Across the six attacks, 35 people, including 11 assailants, were killed and at least 21 people, including five assailants, were wounded. No group claimed responsibility for this attack."
2.01306E+11,2013,6,26,,0,,44,China,4,East Asia,Xinjiang,Lukqun,42.864291,90.218627,2,0,Incident occurred in Shanshan country.,"06/26/2013: Assailants attacked a construction site in Lukqun township, Xinjiang province, China. This was one of six related attacked in the township on this day. Across the six attacks, 35 people, including 11 assailants, were killed and at least 21 people, including five assailants, were wounded. No group claimed responsibility for this attack."
2.01306E+11,2013,6,26,,0,,44,China,4,East Asia,Xinjiang,Lukqun,42.864291,90.218627,2,0,Incident occurred in Shanshan county.,"06/26/2013: Assailants attacked a private store in Lukqun township, Xinjiang province, China. This was one of six related attacked in the township on this day. Across the six attacks, 35 people, including 11 assailants, were killed and at least 21 people, including five assailants, were wounded. No group claimed responsibility for this attack."
2.01306E+11,2013,6,26,,0,,44,China,4,East Asia,Xinjiang,Lukqun,42.864291,90.218627,2,0,Incident occurred in Shanshan county.,"06/26/2013: Assailants attacked a beauty salon in Lukqun township, Xinjiang province, China. This was one of six related attacked in the township on this day. Across the six attacks, 35 people, including 11 assailants, were killed and at least 21 people, including five assailants, were wounded. No group claimed responsibility for this attack."
2.01306E+11,2013,6,28,,0,,44,China,4,East Asia,Xinjiang,Hotan,37.114156,79.92298,1,0,,"06/28/2013: Approximately 100 assailants attacked a police station in Hotan city, Xinjiang province, China. It is unknown if there were any casualties in the attack. No group claimed responsibility for the incident."
2.0131E+11,2013,10,28,,0,,44,China,4,East Asia,Beijing,Beijing,39.903948,116.391805,1,0,Incident occurred in Tiananmen Square.,"10/28/2013: Three assailants drove a vehicle through a crowd in Tiananmen Square, Beijing, China. At least five people, including the three drivers, were killed and 40 others were injured in the attack. The Turkestan Islamic Party claimed responsibility for the incident."
2.01311E+11,2013,11,6,,0,,44,China,4,East Asia,Shanxi,Taiyuan,37.87059,112.548879,1,0,,"11/06/2013: An explosive device detonated outside of the provincial Communist Party office in Taiyuan city, Shanxi province, China. One person was killed and eight were wounded in the attack. No group claimed responsibility for the incident; however, Feng Zhijun was arrested and confessed to the attack."
2.01311E+11,2013,11,17,"November 17, 2013",0,,44,China,4,East Asia,Xinjiang,Kashgar,39.463938,75.987303,1,0,,"11/17/2013: Assailants attacked the Kashgar police department in Kashgar city, Xinjiang province, China. Eleven people were killed in the attack and two others were wounded. No group claimed responsibility for the incident."
2.01311E+11,2013,11,28,,0,,101,Japan,4,East Asia,Tokyo,Fussa,35.733193,139.341805,1,0,The incident occurred at the Yokota Air Base.,"11/28/2013: Assailants fired two improvised projectiles at the United States Yokota Air Base in Fussa, Tokyo, Japan. The projectiles did not reach the base, and there were no reported casualties or damages. The Revolutionary Workers' Council (Kakurokyo) claimed responsibility for the attack."
2.01312E+11,2013,12,30,,0,,44,China,4,East Asia,Xinjiang,Yarkand,38.430134,77.256216,1,0,,"12/30/2013: Nine assailants armed with knives and explosive devices attacked a Xinjiang Provincial Public Security Bureau station in Yarkand city, Xinjiang province, China. At least eight assailants were killed while the other was arrested in the assault. No group claimed responsibility; however, sources attributed the incident to Uighur separatists."
2.01401E+11,2014,1,13,,0,,44,China,4,East Asia,Guizhou,Kaili,26.581159,107.981186,1,0,Incident occurred in Laoshan area,"01/13/2014: An explosive device detonated at an illegal gambling den in Laoshan village, Kaili city, Guizhou province, China. At least 14 people were killed and seven were wounded in the blast. No group claimed responsibility for the incident."
2.01401E+11,2014,1,24,,0,,44,China,4,East Asia,Xinjiang,Aksu district,41.244772,81.594601,3,0,The incident took place in Xinhe county.,"01/24/2014: An explosive device detonated at a hair salon in Xinhe county in Aksu district, Xinjiang province, China. This was one of four such attacks in Xinhe on this day. At least one person was killed and at least two other people were wounded between this and another incident. No group claimed responsibility for the attacks."
2.01401E+11,2014,1,24,,0,,44,China,4,East Asia,Xinjiang,Aksu district,41.244772,81.594601,3,0,The incident took place in Xinhe county.,"01/24/2014: An explosive device detonated at a vegetable market in Xinhe county in Aksu district, Xinjiang province, China. This was one of four such attacks in Xinhe on this day. At least one person was killed and at least two other people were wounded between this and another incident. No group claimed responsibility for the attacks."
2.01401E+11,2014,1,24,,0,,44,China,4,East Asia,Xinjiang,Aksu district,41.244772,81.594601,3,0,The incident took place in Xinhe county.,"01/24/2014: An explosives-laden vehicle detonated after it was surrounded by police in Xinhe county in Aksu district, Xinjiang province, China. At least two people, both of whom were inside the vehicle, were killed as a result of the blast. This was one of four such attacks in Xinhe on this day. No group claimed responsibility for the incidents."
2.01401E+11,2014,1,24,,0,,44,China,4,East Asia,Xinjiang,Aksu district,41.244772,81.594601,3,0,The incident took place in Xinhe county.,"01/24/2014: Assailants threw an explosive device at a group of police officers in Xinhe county in Aksu district, Xinjiang province, China. A firefight ensued, during which at least six assailants were killed and at least one police officer was injured. This was one of four such attacks in Xinhe on this day. No group claimed responsibility for the incidents."
2.01401E+11,2014,1,27,,0,,101,Japan,4,East Asia,Hokkaido,Sapporo,43.090744,141.340726,1,0,The incident occurred in the Kita Ward neighborhood of the city.,"01/27/2014: A gas cylinder bomb detonated in the parking lot of a police station in Kita Ward area, Sapporo city, Hokkaido prefecture, Japan. It is unknown if there were any casualties in the blast. In a letter sent to a news outlet in April, an anonymous individual claimed responsibility for this and four similar blasts that took place between January and April, 2014. In the letter, the individual expressed a number of grievances with the local police. In May, 2014, police arrested Sanae Nasukawa in connection with the blasts."
2.01402E+11,2014,2,14,,0,,44,China,4,East Asia,Xinjiang,Wushi district,41.244772,79.342833,3,0,,"02/14/2014: Suicide bombers in explosives-laden vehicles carried out an attack in Wushi district, Xinjiang province, China. It is unclear if the explosives detonated as planned or if police officers opened fire, but at least 11 assailants were killed, and two Xinjiang Public Security Bureau (PSB) officers and two civilians were wounded. No group claimed responsibility; however, sources attributed the incident to Uighur separatists."
2.01402E+11,2014,2,20,,0,,101,Japan,4,East Asia,Hokkaido,Sapporo,43.090744,141.340726,1,0,The incident occurred in the Kita Ward neighborhood of the city.,"02/20/2014: A gas cylinder bomb detonated in the parking lot of a department store in Kita Ward area, Sapporo city, Hokkaido prefecture, Japan. No casualties were reported. In a letter sent to a news outlet in April, an anonymous individual claimed responsibility for this and four similar blasts that took place betwen January and April, 2014. In the letter, the individual expressed a number of grievances with the local police. In May 2014, police arrested Sanae Nasukawa in connection with the blasts."
2.01402E+11,2014,2,26,,0,,44,China,4,East Asia,Hong Kong,Hong Kong,22.265228,114.238384,1,0,The incident occurred in the Chai Wan neighborhood of the city.,"02/26/2014: Two assailants attacked Kevin Lau, a former newspaper editor, with a meat cleaver in Chai Wan neighborhood, Hong Kong city, Hong Kong special administrative region, China. Lau was wounded in the attack. No group claimed responsibility for the incident."
2.01403E+11,2014,3,1,,0,,44,China,4,East Asia,Yunnan,Kunming,25.015306,102.722004,1,0,The incident occurred at Kunming Railway Station.,"03/01/2014: Assailants attacked a train station in Kunming city, Yunnan province, China. At least four assailants and 29 other people were killed in the attack. Additionally, at least 143 people were wounded. Uighur separatists claimed responsibility for the incident."
2.01403E+11,2014,3,17,,0,,44,China,4,East Asia,Xinjiang,Urumqi,43.801097,87.595828,1,0,The incident occurred in the Shayibak district of the city.,"03/17/2014: An assailant attacked a police officer in Shayibak district, Urumqi city, Xinjiang province, China. The officer was killed in the attack, and the assailant was shot and killed when police opened fire. No group claimed responsibility for the incident."
2.01403E+11,2014,3,18,,0,,101,Japan,4,East Asia,Hokkaido,Sapporo,43.096483,141.342838,1,0,The incident occurred in the Kita Ward area of the city.,"03/18/2014: An explosive device detonated in the parking lot of a department store in Kita Ward, Sapporo, Hokkaido, Japan. There were no reported casualties in the attack. In a letter sent to a news outlet in April 2014, an anonymous individual claimed responsibility for this and four similar blasts that took place between January-April, 2014. In the letter, the individual expressed a number of grievances with the local police. In May, 2014, police arrested Sanae Nasukawa in connection with the blasts."
2.01403E+11,2014,3,22,,0,,44,China,4,East Asia,Hunan,Huaihua,27.554978,109.998488,1,0,,"03/22/2014: An assailant attacked civilians with a knife on a railway platform in Huaihua, Hunan province, China. Three people were injured in the attack. No group claimed responsibility for the incident."
2.01403E+11,2014,3,27,,0,,101,Japan,4,East Asia,Hokkaido,Sapporo,43.090982,141.342221,1,0,The incident occurred in the Kita Ward area of the city.,"03/27/2014: An explosive device detonated in the parking lot of a department store in Kita Ward, Sapporo, Hokkaido, Japan. There were no reported casualties in the attack. In a letter sent to a news outlet in April 2014, an anonymous individual claimed responsibility for this and four similar blasts that took place between January-April, 2014. In the letter, the individual expressed a number of grievances with the local police. In May of 2014, police arrested Sanae Nasukawa in connection with the blasts."
2.01404E+11,2014,4,3,,0,,101,Japan,4,East Asia,Hokkaido,Sapporo,43.090751,141.3402,1,0,The incident occurred in the Kita Ward neighborhood of the city.,"04/03/2014: Three gas cylinder bombs detonated in front of a police apartment building in Kita Ward area, Sapporo city, Hokkaido prefecture, Hokkaido region, Japan. No one was injured in the blast. In a letter sent to a news outlet In April, an anonymous individual claimed responsibility for this and four similar blasts that took place from January-April, 2014. In the letter, the individual expressed a number of grievances with the local police. In May, 2014, police arrested Sanae Nasukawa in connection with the blasts. Nasukawa denied being responsible for the attacks, and while she was in police custody, two more gas cylinder attacks took place in the area. Police dismissed these incidents as ""copycat"" crimes."
2.01404E+11,2014,4,27,,0,,44,China,4,East Asia,Xinjiang,Kargilik district,37.883132,77.414109,3,0,,"04/27/2014: Assailants stabbed and killed three county officials in Kargilik district, Xinjiang, China. At least two of the officials appeared to have been executed. No group claimed responsibility for the attack."
2.01404E+11,2014,4,30,,0,,44,China,4,East Asia,Xinjiang,Urumqi,43.825427,87.617762,1,0,,"04/30/2014: Two suicide bombers detonated inside a train station in Urumqi, Xinjiang, China. In addition to the two assailants, at least one person was killed and 79 others were wounded in the blast. The Turkestan Islamic Party claimed responsibility for the attack."
2.01405E+11,2014,5,6,,0,,44,China,4,East Asia,Guangdong,Guangzhou,23.126288,113.262464,1,0,,"05/06/2014: An assailant with a knife attacked a train station in Guangzhou city, Guangdong province, China. Seven people, including one assailant, were injured in the incident. No group claimed responsibility for the attack; however, authorities attributed the incident to Uighur separatists."
2.01405E+11,2014,5,13,,0,,44,China,4,East Asia,Xinjiang,Guma,37.05852,79.456966,2,0,,"05/13/2014: Assailants threw two grenades at a police station in Guma county, Hotan prefecture, Xinjiang province, China. Two police officers were injured in the attack. No group claimed responsibility for the incident."
2.01405E+11,2014,5,22,,0,,44,China,4,East Asia,Xinjiang,Urumqi,43.825592,87.616848,1,0,,"05/22/2014: Five suicide bombers detonated two explosives-laden vehicles at a market in Urumqi city, Xinjiang region, China. In addition to five suicide bombers, 31 people were killed and 94 others were wounded in the blast. No group claimed responsibility for the incident; however, sources attributed the attack to Uighur separatists."
2.01405E+11,2014,5,23,,0,,44,China,4,East Asia,Xinjiang,Yarkand district,38.414217,77.245761,3,0,,"05/23/2014: An explosive device detonated outside a police station in Yarkand district, Xinjiang province, China. There were an unknown number of casualties in the blast. This was one of five explosive devices planted in Yarkand district on May 23, 2014; four of which were safely defused. No group claimed responsibility for the incident."
2.01405E+11,2014,5,23,,0,,44,China,4,East Asia,Xinjiang,Yarkand district,38.41423,77.245807,3,0,,"05/23/2014: An explosive device was discovered and safely defused outside a police building in Yarkand district, Xinjiang province, China. This was one of five explosive devices planted in Yarkand district on May 23, 2014; four of which were safely defused. No group claimed responsibility for the incident."
2.01405E+11,2014,5,23,,0,,44,China,4,East Asia,Xinjiang,Yarkand district,38.41423,77.245807,3,0,,"05/23/2014: An explosive device was discovered and safely defused outside a police building in Yarkand district, Xinjiang province, China. This was one of five explosive devices planted in Yarkand district on May 23, 2014; four of which were safely defused. No group claimed responsibility for the incident."
2.01405E+11,2014,5,23,,0,,44,China,4,East Asia,Xinjiang,Yarkand district,38.41423,77.245807,3,0,,"05/23/2014: An explosive device was discovered and safely defused outside a police building in Yarkand district, Xinjiang province, China. This was one of five explosive devices planted in Yarkand district on May 23, 2014; four of which were safely defused. No group claimed responsibility for the incident."
2.01405E+11,2014,5,23,,0,,44,China,4,East Asia,Xinjiang,Yarkand district,38.41423,77.245807,3,0,,"05/23/2014: An explosive device was discovered and safely defused outside a gas station in Yarkand district, Xinjiang province, China. This was one of five explosive devices planted in Yarkand district on May 23, 2014; four of which were safely defused. No group claimed responsibility for the incident."
2.01406E+11,2014,6,8,,0,,44,China,4,East Asia,Heilongjiang,Anda,46.412161,125.331597,1,0,,"06/08/2014: An explosive device detonated targeting a restaurant in Anda city, Heilongjiang province, China. Two police officers were injured in the attack. Authorities arrested an individual identified as Zhu Shibin in connection with the attack."
2.01406E+11,2014,6,15,,0,,44,China,4,East Asia,Xinjiang,Hotan district,37.114157,79.922211,3,0,,"06/15/2014: Assailants wielding knives attacked a chess hall in Hotan district, Xinjiang province, China. The people in the hall retaliated; at least two assailants were killed and five victims and assailants were injured in the ensuing clash. Muslim fundamentalists claimed responsibility for the incident. In his claim of the attack, one of the assailants noted that he was attempting to wage a holy war and attacked the chess hall because he thought the people inside would not put up a resistance."
2.01406E+11,2014,6,20,,0,,44,China,4,East Asia,Xinjiang,Karakax district,37.277499,79.72932,3,0,,"06/20/2014: Assailants attacked a Chinese Police checkpoint and set a room on fire in Karakax district, Xinjiang province, China. Five police officers were killed in the attack. No group claimed responsibility for the incident."
2.01406E+11,2014,6,21,,0,,44,China,4,East Asia,Xinjiang,Yecheng district,37.880598,77.417292,3,0,,"06/21/2014: Assailants drove a truck into a police building and detonated explosive devices in Yecheng district, Xinjiang province, China. Thirteen assailants were killed and three police officers were wounded in the attack. No group claimed responsibility for the incident."
2.01407E+11,2014,7,12,,0,,44,China,4,East Asia,Xinjiang,Aksu,41.168126,80.26679,1,0,,"07/12/2014: Assailants attacked a vehicle carrying Han Chinese businesspeople and stabbed them in Aksu city, Xinjiang province, China. Five people were killed in the attack. No group claimed responsibility for the incident; however, sources attributed the attack to Uighur separatists."
2.01407E+11,2014,7,15,,0,,44,China,4,East Asia,Qinghai,Xining,36.61606,101.779142,1,0,,"07/15/2014: An explosive device detonated in the parking lot of Caojiabao Airport in Xining city, Qinghai province, China. One person was injured in the blast. No group claimed responsibility for the incident."
2.01407E+11,2014,7,18,,0,,44,China,4,East Asia,Xinjiang,Aktokay,41.184255,79.145401,2,0,The incident occurred in the Uchturpan county of the region.,"07/18/2014: Assailants attacked and stabbed Nurmemet Rozi in Aktokay town, Xinjiang province, China. Rozi, the Director of the Justice Department, was killed in the attack. No group claimed responsibility for the incident; however, sources attributed the attack to Uighur separatists."
2.01407E+11,2014,7,28,,0,,44,China,4,East Asia,Xinjiang,Elixku,38.709876,77.370471,1,0,,"07/28/2014: Assailants attacked Government of China offices and a Chinese Police station in Elixku, Xinjiang, China. This was one of two related incidents in Xinjiang province on this date. In addition to 59 assailants, 37 people were killed and 13 others were wounded across both attacks. No group claimed responsibility for the incidents; however, sources attributed the attacks to the Turkestan Islamic Party."
2.01407E+11,2014,7,28,,0,,44,China,4,East Asia,Xinjiang,Huangdi,39.51953,75.94243,1,0,,"07/28/2014: Assailants attacked civilians and vehicles in Huangdi, Xinjiang, China. This was one of two related incidents in Xinjiang province on this date. In addition to 59 assailants, 37 people were killed and 13 others were wounded across both attacks. No group claimed responsibility for the incidents; however, sources attributed the attacks to the Turkestan Islamic Party."
2.01407E+11,2014,7,30,,0,,44,China,4,East Asia,Xinjiang,Kashgar,39.469409,75.990067,1,0,,"07/30/2014: Assailants stabbed Jume Tahir in Kashgar city, Xinjiang region, China. Tahir, an imam, was killed in the attack. No group claimed responsibility for the incident; however, sources attributed the attack to Uighur separatists."
2.01408E+11,2014,8,20,,0,,44,China,4,East Asia,Shandong,Longkou,37.646312,120.478149,1,0,,"08/20/2014: An assailant set a bus on fire in Longkou city, Shandong province, China. One person was killed and 19 others were wounded in the attack. No group claimed responsibility for the incident."
2.01409E+11,2014,9,21,,0,,44,China,4,East Asia,Xinjiang,Luntai district,41.776387,84.250957,3,0,,"09/21/2014: An explosive device detonated near a Chinese Police Station in Luntai district, Xinjiang region, China. This was one of four bombings in Luntai on the same day. At least 50 people, including 40 assailants, were killed and 54 others were injured across all four attacks. No group claimed responsibility; however, sources attributed the attacks to Mamat Tursun, a Uighur separatist."
2.01409E+11,2014,9,21,,0,,44,China,4,East Asia,Xinjiang,Luntai district,41.776387,84.250957,3,0,,"09/21/2014: An explosive device detonated near a Chinese Police Station in Luntai district, Xinjiang region, China. This was one of four bombings in Luntai on the same day. At least 50 people, including 40 assailants, were killed and 54 others were injured across all four attacks. No group claimed responsibility; however, sources attributed the attacks to Mamat Tursun, a Uighur separatist."
2.01409E+11,2014,9,21,,0,,44,China,4,East Asia,Xinjiang,Luntai district,41.776387,84.250957,3,0,,"09/21/2014: An explosive device detonated near a market in Luntai district, Xinjiang region, China. This was one of four bombings in Luntai on the same day. At least 50 people, including 40 assailants, were killed and 54 others were injured across all four attacks. No group claimed responsibility; however, sources attributed the attacks to Mamat Tursun, a Uighur separatist."
2.01409E+11,2014,9,21,,0,,44,China,4,East Asia,Xinjiang,Luntai district,41.776387,84.250957,3,0,,"09/21/2014: An explosive device detonated near a shop in Luntai district, Xinjiang region, China. This was one of four bombings in Luntai on the same day. At least 50 people, including 40 assailants, were killed and 54 others were injured across all four attacks. No group claimed responsibility; however, sources attributed the attacks to Mamat Tursun, a Uighur separatist."
2.0141E+11,2014,10,12,,0,,44,China,4,East Asia,Xinjiang,Bachu district,39.795157,78.56193,3,0,,"10/12/2014: Four assailants attacked police officers and civilians at a farmers market with knives and explosives in Bachu district, Kashgar prefecture, Xinjiang region, China. At least 22 people, including four assailants, were killed and 24 people were wounded in the attack. No group claimed responsibility; however, sources attributed the incident to Uighur separatists."
2.01411E+11,2014,11,4,,0,,201,Taiwan,4,East Asia,Taipei,Taipei,25.033333,121.633333,1,0,,"11/04/2014: An assailant in a vehicle attempted to attack the presidential residence in Taipei, Taiwan. The car was stopped near a gate after the tires were pierced by spikes placed at the residence. There were no reported casualties in the attack. An unaffiliated individual, identified as Chen Ping-sung, claimed responsibility for the incident and stated that he was attempting to voice his concerns about the medical system in Taiwan."
2.01411E+11,2014,11,28,,0,,44,China,4,East Asia,Xinjiang,Yarkant,38.414217,77.245761,1,0,,"11/28/2014: Assailants threw explosives devices and attacked people on a commercial street in Yarkant county, Xinjiang region, China. At least fifteen people, including eleven assailants, were killed and fourteen others were wounded in the attack. No group claimed responsibility for the incident."
2.01502E+11,2015,2,13,,0,,44,China,4,East Asia,Xinjiang,Hotan district,37.11384,79.922001,3,0,,"02/13/2015: A suicide bomber detonated targeting a police officer in Hotan district, Xinjiang region, China. As many as eight people were killed and seven wounded in the blast. No group claimed responsibility for the incident; however, sources attributed the attack to Uighur separatists."
2.01503E+11,2015,3,5,,0,,184,South Korea,4,East Asia,Seoul,Seoul,37.572525,126.975643,1,0,,"03/05/2015: An assailant attacked Mark Lippert with a knife in Seoul city, Seoul province, South Korea. Lippert, the United Stated (US) Ambassador to South Korea, was injured in the attack. No group claimed responsibility for the incident; however, sources attributed the attack to an individual, identified as Kim Ki-Jong."
2.01503E+11,2015,3,6,,0,,44,China,4,East Asia,Guangdong,Guangzhou,23.129192,113.264206,1,0,,"03/06/2015: Assailants, armed with knives, attacked civilians at a train station in Guangzhou city, Guangdong province, China. One assailant was killed and nine people were wounded in the attack. No group claimed responsibility for the incident; however, sources attributed the attack to Uighur separatists."
2.01503E+11,2015,3,8,,0,,44,China,4,East Asia,Xinjiang,Yarkant district,38.414079,77.245805,3,0,,"03/08/2015: Assailants attacked Fang Kezheng in Yarkant district, Xinjiang province, China. Kezheng, a commander of the People's Armed Police (PAP), was killed along with his wife, his wife's uncle, and a security guard. Seven assailants were also killed and four civilians were wounded when security forces responded. No group claimed responsibility for the incident; however, sources attributed the attack to Uighur Separatists."
2.01503E+11,2015,3,9,,1,,44,China,4,East Asia,Xinjiang,Hotan district,37.113704,79.922407,3,0,The incident occurred in Baghchi township,"03/09/2015: Assailants kidnapped Imin Mentimin in Baghchi township, Hotan district, Xinjiang province, China. The whereabouts of Mentimin, an Uyghur police chief, are unknown. No group claimed responsibility for the incident; however, sources attributed the abduction to Uighur Separatists."
2.01503E+11,2015,3,12,,0,,44,China,4,East Asia,Xinjiang,Kashgar,39.470107,75.989761,1,0,,"03/12/2015: Assailants armed with knives attacked civilians outside of a casino in Kashgar city, Xinjiang province, China. Eight civilians were wounded in the attack, and four assailants were killed and two were wounded when police opened fire on them. No group claimed responsibility for the incident; however, the assailants were identified as Uighur Separatists."
2.01503E+11,2015,3,25,,0,,101,Japan,4,East Asia,Tokyo,Tokyo,35.689124,139.747735,1,0,The incident occurred in Shinjuku neighborhood,"03/25/2015: An assailant set fire to the South Korean Ministry of Foreign Affairs (MOFA) Cultural Center in Shinjuku neighborhood, Tokyo city, Tokyo prefecture, Japan. There were no reported casualties in the attack. No group claimed responsibility for the attack."
2.01504E+11,2015,4,22,,0,,44,China,4,East Asia,Xinjiang,Pishan,37.62145,78.283669,1,0,,"04/22/2015: Assailants carried out an attack in Pishan, Xinjiang, China. The outcome of the incident is unknown. No group claimed responsibility for the attack."
2.01504E+11,2015,4,28,,0,,101,Japan,4,East Asia,Kanagawa,Zama,35.493418,139.397464,1,0,,"04/28/2015: Three blasts occurred near a United States Army camp in Zama, Kanagawa prefecture, Japan. There were no reports of casualties in the attack. Security forces responding to the scene found iron pipes near the base believed to be rocket launchers. The Revolutionary Army claimed responsibility for the incident and denounced recent initiatives to strengthen United States (US) and Japanese relations."
2.01505E+11,2015,5,11,,0,,44,China,4,East Asia,Xinjiang,Hotan,37.114157,79.922211,1,0,,"05/11/2015: An assailant threw an explosive device at a police checkpoint in Hotan town, Xinjiang province, China. Two police officers and one assailant were killed in the attack. No group claimed responsibility for the incident; however, sources attributed the attack to Uighur Separatists."
2.01505E+11,2015,5,12,,0,,44,China,4,East Asia,Xinjiang,Hotan,37.114158,79.922211,1,0,,"05/12/2015: Two suicide bombers detonated explosives at a police checkpoint in Hotan town, Xinjiang province, China. In addition to the two suicide bombers, one police officer was killed and four officers were wounded in the blast. No group claimed responsibility for the incident; however, sources attributed the attack to Uighur Separatists."
2.01505E+11,2015,5,26,,0,,44,China,4,East Asia,Xinjiang,Zawa,37.1875,79.607222,2,0,,"05/26/2015: Assailants attacked a police patrol in Zawa township, Xinjiang province, China. Two assailants were killed in the ensuing clash. No group claimed responsibility for the incident; however, sources attributed the attack to Uighur separatists."
2.01506E+11,2015,6,17,,0,,44,China,4,East Asia,Shaanxi,Xian,34.341104,108.941203,1,0,,"06/17/2015: An assailant attempted to attack a line of passengers at a railway station in Xian city, Shaanxi province, China. The assailant was killed by police before being able to successfully complete the attack. No group claimed responsibility for the incident; however, authorities attributed the attack to Uighur separatists."
2.01506E+11,2015,6,22,,0,,44,China,4,East Asia,Xinjiang,Kashgar,39.46616,75.989641,1,0,The incident occurred in the city's Tahtakoruk district.,"06/22/2015: Assailants armed with knives and explosives attacked a police checkpoint in Tahtakoruk district, Kashgar city, Xinjiang region, China. At least 33 people were killed and five others were injured in the assault. No group claimed responsibility for the incident; however, sources attributed the attack to Uighur separatists."
2.01507E+11,2015,7,13,,0,,44,China,4,East Asia,Xinjiang,Shenyang,43.793025,87.627704,4,0,,"07/13/2015: Three assailants armed with knives attacked police officers in Shenyang city, Xinjiang province, China. The assailants were killed when the officers retaliated; there were no reported casualties among the officers. No group claimed responsibility for the incident."
2.01507E+11,2015,7,20,,0,,44,China,4,East Asia,Shandong,Heze,35.23375,115.480656,1,0,,"07/20/2015: A suicide bomber detonated targeting civilians in Huxi Park in Heze city, Shandong province, China. Three people, including the assailant, were killed and twenty-three others were wounded in the attack. No group claimed responsibility for the incident."
2.01507E+11,2015,7,29,,0,,44,China,4,East Asia,Guangxi,Liuzhou,24.370416,109.379601,1,0,The incident occurred in the Machang village area,"07/29/2015: An assailant armed with an axe attacked civilians at a grocery store in Machang village, Liuzhou City, Guangxi Autonomous Region, China. A civilian was killed and six others were injured in the attack. No group claimed responsibility for the incident."
2.01507E+11,2015,7,26,,0,,44,China,4,East Asia,Zhejiang,Taizhou,28.562222,121.428611,1,0,,"07/26/2015: An assailant set fire to an airplane at Taizhou airport, Taizhou city, Zhejiang province, China. Two people were injured in the attack. No group claimed responsibility for the incident."
2.01508E+11,2015,8,16,,0,,101,Japan,4,East Asia,Tokyo,Tokyo,35.689124,139.747735,1,0,The incident occurred in the Kita Ward.,"08/16/2015: An assailant set fire to a cable along the East Japan Railway Company Tohoku Line near a crossing in Kita Ward, Tokyo city, Tokyo prefecture, Japan. There were no reported casualties in the attack, but the cable was damaged. Izaya Noda, an anti-nuclear activist, was arrested on September 16, 2015 in connection with this and six other related incidents from August 16th through September 5th. Noda claim the Japan Railway used too much electricity."
2.01508E+11,2015,8,18,,0,,101,Japan,4,East Asia,Tokyo,Tachikawa,35.698414,139.423391,1,0,,"08/18/2015: An assailant set fire to an electric cable under an elevated track along the East Japan Railway Company Chuo Line between two stations in Tachikawa city, Tokyo prefecture, Japan. There were no reported casualties in the attack, but the cable was damaged in the fire. Izaya Noda, an anti-nuclear activist, was arrested on September 16, 2015 in connection with this and six other related incidents from August 16th through September 5th. Noda claimed that the Japan Railway used too much electricity."
2.01508E+11,2015,8,22,,0,,101,Japan,4,East Asia,Tokyo,Tokyo,35.689124,139.747735,1,0,The incident occurred in the Nakano Ward.,"08/22/2015: An assailant set fire to a communication cable along the East Japan Railway Company Chuo Line between two stations in Nakano Ward, Tokyo city, Tokyo prefecture, Japan. There were no reported casualties in the attack. Izaya Noda, an anti-nuclear activist, was arrested on September 16, 2015 in connection with this and six other related incidents from August 16th through September 5th. Noda stated that the company was targeted because they used excessive electricity."
2.01508E+11,2015,8,23,,0,,101,Japan,4,East Asia,Tokyo,Tokyo,35.689124,139.747735,1,0,The incident occurred in Shinagawa Ward.,"08/23/2015: An assailant set fire inside the East Japan Railway Company substation compound in Shinagawa Ward, Tokyo city, Tokyo prefecture, Japan. There were no reported casualties in the attack, but the substation was damaged. Izaya Noda, an anti-nuclear activist, was arrested on September 16, 2015 in connection with this and six other related incidents from August 16th through September 5th. Noda claim the Japan Railway used too much electricity."
2.01508E+11,2015,8,27,,0,,101,Japan,4,East Asia,Tokyo,Tokyo,35.689124,139.747735,1,0,The incident occurred in the Shibuya Ward.,"08/27/2015: An assailant set fire to East Japan Railway Company cables in Shibuya Ward, Tokyo, Japan. There were no reported casualties in the attack. Izaya Noda, an anti-nuclear activist, was arrested on September 16, 2015 in connection with the attack and six other incidents from August 16th through September 5th. Noda stated that he targeted East Japan Railway Company because the company used excessive electricity."
2.01508E+11,2015,8,30,,0,,101,Japan,4,East Asia,Tokyo,Tokyo,35.689124,139.747735,1,0,The incident occurred in Meguro Ward.,"08/30/2015: An assailant set fire to a cable along the East Japan Railway Company railway line in Meguro Ward, Tokyo city, Tokyo prefecture, Japan. There were no reported casualties in the attack. Izaya Noda, an anti-nuclear activist, was arrested on September 16, 2015 in connection with this and six other related incidents from August 16th through September 5th. Noda stated that the company was targeted because they used excessive electricity."
2.01509E+11,2015,9,5,,0,,101,Japan,4,East Asia,Tokyo,Kokubunji,35.700489,139.487034,1,0,,"09/05/2015: An assailant set fire to a cable supporting a utility pole along the East Japan Railway Company Chuo Line between two stations in Kokubunji city, Tokyo prefecture, Japan. There were no reported casualties in the attack, but the cable was damaged. Izaya Noda, an anti-nuclear activist, was arrested on September 16, 2015 in connection with this and six other related incidents from August 16th through September 5th. Noda claimed the Japan Railway was using too much electricity."
2.01509E+11,2015,9,18,,0,,44,China,4,East Asia,Xinjiang,Terek,42.000923,81.532828,2,1,The incident occurred in Baicheng county of Aksu prefecture.,"09/18/2015: Assailants armed with knives attacked the Sogan Colliery coal mine in Baicheng county, Aksu prefecture, Xinjiang region, China. At least 50 people, including five police officers, were killed as a result of the attack. No group claimed responsibility for the incident; however, sources attributed the attack to Uighur Separatists."
2.01511E+11,2015,11,23,,0,,101,Japan,4,East Asia,Tokyo,Tokyo,35.689124,139.747735,1,0,,"11/23/2015: An explosive device detonated at the Yasukuni shrine in Tokyo, Japan. No one was injured in the blast. A South Korean national identified as Chon Chang Han was arrested and confessed to carrying out the attack."
2.01512E+11,2015,12,6,,0,,44,China,4,East Asia,Inner Mongolia,Ejin Horo,39.564696,109.747881,1,0,,"12/06/2015: Approximately 100 assailants attacked a police checkpoint with clubs and tear gas in Ejin Horo area, Inner Mongolia province, China. At least 13 people were wounded in the attack and 11 vehicles were destroyed. No group claimed responsibility for the incident."
2.01602E+11,2016,2,28,,0,,201,Taiwan,4,East Asia,Taipei,Taipei,25.046689,121.539533,1,0,The incident occurred in the Sonshan district.,"02/28/2016: An assailant threw Molotov cocktails at the Chinese Nationalist Party (KMT) headquarters in Taipei, Taiwan. There were no reported casualties in the attack. In a note left at the scene, the assailant demanded that the Chinese Nationalist Party (KMT) return all land and property to Taiwan."
2.01604E+11,2016,4,28,,0,,44,China,4,East Asia,Shaanxi,Xi'an,34.326221,108.947849,1,0,,"04/28/2016: Assailants hijacked and set fire to a passenger bus in Xi'an, Shaanxi, China. At least eight people were killed and five others were injured in the attack. No group claimed responsibility; however, sources attributed the incident to Uighur separatists."
2.01607E+11,2016,7,26,,0,,101,Japan,4,East Asia,Kanagawa,Sagamihara,35.61361,139.213193,1,0,The incident occurred in the Midori ward of the city.,"07/26/2016: An assailant tied up two staff members and stabbed patients throughout the Tsukui Yamayuri En facility for mentally disabled people in Sagamihara, Kanagawa, Japan. At least 19 people were killed and 26 people were injured in the assault. Satoshi Uematsu turned himself in to police and claimed responsibility for the incident, stating ""it is better that disabled people disappear."" Additionally, Uematsu had written a letter to the Japanese Parliament in February 2016 in which he urged the government to allow euthanasia for people with mental disabilities and outlined a plot to attack patients at two facilities."
2.01611E+11,2016,11,20,,0,,44,China,4,East Asia,Yunnan,Wending,24.889474,99.990597,1,0,,"11/20/2016: Assailants launched artillery shells at Wending, Yunnan, China. This was one of two related attacks in the area on this date. One civilian was injured across both attacks. No group claimed responsibility; however, sources attributed the incidents to the Kachin Independence Army (KIA) and the National Democratic Alliance Army (NDAA-ESSA)."
2.01611E+11,2016,11,20,,0,,44,China,4,East Asia,Yunnan,Manghai,21.956799,100.454424,1,0,,"11/20/2016: Assailants launched artillery shells at Manghai, Yunnan, China. This was one of two related attacks in the area on this date. One civilian was injured across both attacks. No group claimed responsibility; however, sources attributed the incidents to the Kachin Independence Army (KIA) and the National Democratic Alliance Army (NDAA-ESSA)."
2.01611E+11,2016,11,25,,0,,44,China,4,East Asia,Shaanxi,Hanzhong,33.06748,107.023323,1,0,,"11/25/2016: An assailant stabbed children at Beiguan Primary School in Hanzhong, Shaanxi, China. Nine people were injured in the attack. Lei Mingyue claimed responsibility for the incident and told police that the attack was ""revenge on society."""
2.01612E+11,2016,12,1,,0,,184,South Korea,4,East Asia,Gyeongsangbuk-do,Gumi,36.119485,128.344573,1,0,,"12/01/2016: An assailant set fire to the Memorial of President Park Chung-hee in Gumi, Gyeongsangbuk-do, South Korea. There were no reported casualties in the attack. An assailant, identified as Baek, claimed responsibility for the incident in a note left at the scene that stated ""Park Geun-hye must kill herself, before disgracing her father."""
2.01612E+11,2016,12,28,,0,,44,China,4,East Asia,Xinjiang,Karakax,37.277294,79.728812,1,0,,"12/28/2016: Assailants rammed a vehicle into the yard of a local Communist Party committee office building in Karakax, Xinjiang, China. The assailants then detonated an explosive device and stormed the building. At least five people, including three assailants, were killed and three people were injured in the ensuing clash. No group claimed responsibility for the incident; however, sources attributed the attack to Uighur separatists."
2.01701E+11,2017,1,18,,0,,44,China,4,East Asia,Guangdong,Foshan,23.028956,113.143441,1,0,The incident occurred in the Nanhai area.,"01/18/2017: An explosive device detonated on a bus in Foshan, Guangdong, China. Four people were injured in the blast. This was one of two related attacks on separate buses on this day. An individual, identified as Liang, claimed responsibility for the incident."
2.01701E+11,2017,1,18,,0,,44,China,4,East Asia,Guangdong,Foshan,23.028956,113.143441,1,0,The incident occurred in the Nanhai area.,"01/18/2017: An explosive device detonated on a bus in Foshan, Guangdong, China. Two people were injured in the blast. This was one of two related attacks on separate buses on this day. An individual, identified as Liang, claimed responsibility for the incident."
2.01702E+11,2017,2,14,,0,,44,China,4,East Asia,Xinjiang,Pishan,37.621435,78.283649,1,0,,"02/14/2017: Assailants armed with knives attacked civilians in Pishan, Xinjiang, China. At least 8 people, including three assailants, were killed and five others were injured in the assault. No group claimed responsibility; however, sources suspected that Uighur separatists carried out the attack."
2.01706E+11,2017,6,15,,0,,44,China,4,East Asia,Jiangsu,Fengxian,33.768378,117.786578,1,0,The incident occurred 75 kilometers from Xuzhou.,"06/15/2017: A suicide bomber detonated an explosive device outside the Chuangxin Kindergarten in Fengxian, Jiangsu, China. In addition to the assailant, seven people were killed and 65 people were injured in the blast. An unaffiliated individual, identified as Xu, claimed responsibility for the incident and left a manifesto on the wall of his apartment referring to overpopulation in China and other countries."
2.01708E+11,2017,8,18,,0,,201,Taiwan,4,East Asia,Taipei,Taipei,25.040132,121.511301,1,0,The incident occurred at the intersection of Bo'ai Road and Zhangsha Street.,"08/18/2017: An assailants armed with a sword stabbed and injured a military police officer guarding the Presidential Office Building at the intersection of Bo'ai Road and Zhangsha Street in Taipei, Taiwan. The assailant was subdued and arrested by additional officers. An unaffiliated individual, identified as Lu Chun-yi, claimed responsibility for the incident and stated that he wanted to display his ""political position."""
2.0171E+11,2017,10,2,,0,,44,China,4,East Asia,Hong Kong,Hong Kong,22.281977,113.936547,1,0,The incident occurred in the Yat Tung Estate area of Tung Chung neighborhood.,"10/02/2017: An assailant set fire to the office of Bill Tang Ka-piu in Yat Tung Estate neighborhood, Hong Kong, China. Ka-piu, a local district councilor, was not harmed as there were no reported casualties in the incident. This was one of two arson attacks carried out by the same assailant on this date. No group claimed responsibility for the incidents."
2.0171E+11,2017,10,2,,0,,44,China,4,East Asia,Hong Kong,Hong Kong,22.281662,113.936252,1,0,The incident occurred in the Yat Tung Estate area of Tung  Chung neighborhood.,"10/02/2017: An assailant set fire to a community center in Yat Tung Estate neighborhood, Hong Kong, China. There were no reported casualties in the incident. This was one of two arson attacks carried out by the same assailant on this date. No group claimed responsibility for the incidents."
2.01802E+11,2018,2,11,,0,,184,South Korea,4,East Asia,Seoul,Seoul,37.573145,126.977849,1,0,,"02/11/2018: An assailant attempted to throw a Molotov cocktail at the United States Embassy in Seoul, South Korea. The assailant lit the device but dropped it into a bag with nine other incendiary devices, setting the bag on fire. The assailant then attempted to flee but was arrested at the scene. An unaffiliated individual claimed responsibility for the incident and stated that the attack was carried out in opposition to the United States, which ""has bullied South Korea and me."""
2.01802E+11,2018,2,23,,0,,101,Japan,4,East Asia,Tokyo,Tokyo,35.689124,139.747735,1,0,The incident occurred in the Chiyoda district of the city.,"02/23/2018: Assailants opened fire on the pro-Pyongyang General Association of Korean Residents in Japan (Chongryon) headquarters in Chiyoda, Tokyo, Japan. There were no reported casualties in the assault. Two assailants were arrested in connection with the attack. One assailant claimed responsibility for the incident and stated that the attack was carried out in retaliation for missile testing by North Korea. Sources also characterized the assailants as ""right-wing activists"" and noted that they ""do not consider ethnic Koreans as members of the same society, and consider it acceptable to kill or wound them."""
2.01805E+11,2018,5,31,,0,,201,Taiwan,4,East Asia,Taipei,Taipei,25.03672,121.512121,1,0,,"05/31/2018: An assailant armed with Molotov cocktails attempted to start a fire inside the Ministry of Justice of the Republic of China building in Taipei, Taiwan. No casualties were reported and the assailant was arrested. No group claimed responsibility for the incident."
2.01805E+11,2018,5,31,,0,,201,Taiwan,4,East Asia,Taipei,Taipei,25.046416,121.540423,1,0,,"05/31/2018: An assailant broke into the Kuomintang (KMT) headquarters and attempted to start a fire in Taipei, Taiwan. No casualties were reported. The assailant, surnamed Tsai, claimed responsibility for the incident and stated that he carried out the attack due to ""his dissatisfaction with the KMT’s inaction in the face of the Democratic Progressive Party government’s promise of a NT$4.5 billion (US$150.1 million) loan to Taiwan’s diplomatic ally Haiti."""
2.01806E+11,2018,6,28,,0,,44,China,4,East Asia,Shanghai,Shanghai,31.196605,121.454561,1,0,The incident occurred in the Xuhui neighborhood.,"06/28/2018: An assailant stabbed several people near the Shiwai elementary school in Xuhui, Shanghai, China. Two children were killed and two people were injured. No group claimed responsibility for the incident; however, authorities detained a man identified as Huang in connection to the attack, stating that he wanted to “take revenge on society.”"
2.01809E+11,2018,9,6,,0,,201,Taiwan,4,East Asia,Taipei City,Taipei,25.040083,121.511955,1,0,The incident occurred in the Zhongzheng area of the city.,"09/06/2018: An assailant armed with a sickle attacked guards at the 211th military police battalion near the Presidential Office in Taipei, Taiwan. There were no reported casualties and the assailant was arrested. No group claimed responsibility for the incident."
2.01901E+11,2019,1,1,,0,,101,Japan,4,East Asia,Tokyo,Tokyo,35.689124,139.747735,1,0,The incident occurred in the Harajuku area of the Shibuya district.,"01/01/2019: An assailant rented a vehicle and drove into crowds celebrating New Year's Day in Harajuku, Tokyo, Japan. At least eight people were injured in the attack. After ramming the vehicle into the crowd, the assailant fled the scene and was later arrested by authorities. A tank of kerosene was discovered in the vehicle and the assailant indicated that he had planned to set fire to crowds at Meiji Shrine with the kerosene and a sprayer. The assailant, Kazuhiro Kusakabe, claimed responsibility for the incident and stated that the attack was carried out in retaliation for the execution of Aum Shinrikyo members."
2.01906E+11,2019,6,25,,0,,184,South Korea,4,East Asia,Seoul,Seoul,37.573139,126.977871,1,0,The incident occurred at 188 Sejong-daero.,"06/25/2019: An assailant rammed his vehicle containing gas canisters into the gate of the United States embassy at 188 Sejong-daero, Seoul, South Korea. There were reported casualties in the attack. No group claimed responsibility for the incident and sources identified the assailant as Park Mo."
2.01907E+11,2019,7,8,,0,,101,Japan,4,East Asia,Kyoto,Kyoto,35.011564,135.768149,1,0,,"07/08/2019: Assailants attacked Pavin Chachavalpongpun, a Thai dissident and political commentator, at his home in Kyoto city, Kyoto, Japan. Chachavalpongpun and his partner were injured in the attack. No group claimed responsibility for the incident."
2.01908E+11,2019,8,29,,0,,44,China,4,East Asia,Hong Kong,Hong Kong,22.320018,114.169304,1,0,The incident occurred in the Mong Kok area of Yau Tsim Mong neighborhood.,"08/29/2019: Assailants, armed with baseball bats and knives, attacked Jimmy Sham, an activist and protest organizer, in Mong Kok neighborhood, Hong Kong, China. Sham was injured in the attack. No group claimed responsibility for the incident."
2.01908E+11,2019,8,30,,0,,44,China,4,East Asia,Hong Kong,Hong Kong,22.277359,114.172153,1,0,The incident occurred in Wan Chai neighborhood.,"08/30/2019: Assailants attacked Davin Wong, the University of Hong Kong (HKU) Student Union President and pro-democracy activist, near the Southorn Playground in Wan Chai neighborhood, Hong Kong, China. Wong was injured in the attack. No group claimed responsibility for the incident."
2.01909E+11,2019,9,2,,0,,44,China,4,East Asia,Hong Kong,Hong Kong,22.371026,114.175585,1,0,The incident occurred in Tai Wai neighborhood.,"09/02/2019: Assailants attacked Isaac Cheng, vice president of Hong Kong's pro-democracy Demosisto party, in Tai Wai neighborhood, Hong Kong, China. Cheng was injured in the attack. No group claimed responsibility for the incident."
2.01909E+11,2019,9,5,,0,,44,China,4,East Asia,Hong Kong,Hong Kong,22.322965,114.175459,1,0,The incident occurred along Kadoorie avenue in Ho Man Tin neighborhood.,"09/05/2019: Assailants threw petrol bombs at the home of Jimmy Lai Chee-ying, the founder of pro-democracy newspaper Apple Daily, along Kadoorie Avenue in Ho Man Tin neighborhood, Hong Kong, China. There were no reported casualties in the attack. No group claimed responsibility for the incident."
2.01909E+11,2019,9,24,,0,,44,China,4,East Asia,Hong Kong,Hong Kong,22.464653,114.006694,1,0,The incident occurred in Tin Shui Wai neighborhood.,"09/24/2019: Assailants attacked Roy Kwong, a Democratic Party Lawmaker, near Wetland Park in Tin Shui Wai neighborhood, Hong Kong, China. Kwong was injured in the attack. No group claimed responsibility for the incident."
2.01909E+11,2019,9,29,,0,,44,China,4,East Asia,Hong Kong,Hong Kong,22.381567,114.272017,1,0,The incident occurred in Sai Kung neighborhood.,"09/29/2019: Assailants, armed with metal rods and sticks, attacked Stanley Ho, a Labor Party member and pro-democracy activist, in Sai Kung neighborhood, Hong Kong, China. Two people, including Ho, were injured in the attack. No group claimed responsibility for the incident."
2.0191E+11,2019,10,13,,0,,44,China,4,East Asia,Hong Kong,Hong Kong,22.3193,114.169339,1,0,The incident occurred between Nathan Road and Kuai Fu Street in Mong Kok area of Yau Tsim Mong neighborhood.,"10/13/2019: An explosive device detonated targeting police personnel between Nathan Road and Kuai Fu Street in Yau Tsim Mong neighborhood, Hong Kong, China. There were no reported casualties in the blast. No group claimed responsibility for the incident."
2.0191E+11,2019,10,15,,0,,44,China,4,East Asia,Hong Kong,Hong Kong,22.32027,114.169734,1,0,The incident occurred in Mong Kok area of Yau Tsim Mong neighborhood.,"10/15/2019: Assailants, armed with hammers and knives, attacked Jimmy Sham, an activist and protest organizer, in Yau Tsim Mong neighborhood, Hong Kong, China. Sham was injured in the attack. No group claimed responsibility for the incident."
2.0191E+11,2019,10,19,,0,,44,China,4,East Asia,Hong Kong,Hong Kong,22.279975,114.166092,1,0,The incident occurred in Admiralty neighborhood.,"10/19/2019: An assailant stabbed a pro-democracy activist handing out leaflets in Admiralty neighborhood, Hong Kong, China. The activist was injured in the attack. An individual claimed responsibility for the incident and stated ""Hong Kong is part of China... (You) messed up Hong Kong"" during the attack."
2.01911E+11,2019,11,6,,0,,44,China,4,East Asia,Hong Kong,Hong Kong,22.390829,113.972513,1,0,The incident occurred in Tuen Mun neighborhood.,"11/06/2019: An assailant armed with a knife attacked Junius Ho, a pro-government lawmaker, while campaigning in Tuen Mun neighborhood, Hong Kong, China. In addition to the assailant, Ho and two other people were injured in the attack. An Anti-Government extremist claimed responsibility for the incident."
2.01911E+11,2019,11,19,,0,,44,China,4,East Asia,Hong Kong,Hong Kong,22.319304,114.169361,1,0,,"11/19/2019: Assailants set fire to the printing press at the Hong Kong Epoch Times warehouse in Hong Kong, China. There were no reported casualties in the attack. No group claimed responsibility for the incident."
2.01912E+11,2019,12,9,,0,,44,China,4,East Asia,Hong Kong,Hong Kong,22.274312,114.176187,1,0,The incident occurred in Wan Chai neighborhood.,"12/09/2019: Authorities discovered and defused two explosive devices at the Wah Yan College in Wan Chai neighborhood, Hong Kong, China. No group claimed responsibility for the incident."
2.01912E+11,2019,12,12,,0,,201,Taiwan,4,East Asia,Tainan,Tainan,23.36651,120.355081,1,0,The incident occurred in the Houbi area of the city.,"12/12/2019: An assailant planted an explosive device outside of a Kuomintang (KMT) party office in Houbi, Tainan, Taiwan. There were no reported casualties in the attack. No group claimed responsibility for the incident; however, authorities arrested an individual identified as Wu in connection with the attack two days later."
2.01912E+11,2019,12,22,,0,,44,China,4,East Asia,Hong Kong,Hong Kong,22.320563,114.212062,1,0,The incident occurred in Kowloon Bay neighborhood.,"12/22/2019: Assailants threw a petrol bomb at Ngau Tau Kok Police Station in Kowloon neighborhood, Hong Kong, China. There were no reported casualties. An unknown group claimed responsibility for the incident and wrote ""Dare not forget"" at the scene of the attack."
2.01912E+11,2019,12,31,,0,,44,China,4,East Asia,Hong Kong,Hong Kong,22.340073,114.138494,1,0,The incident occurred in Lai Chi Kok neighborhood.,"12/31/2019: Assailants threw petrol bombs at government offices in Lai Chi Kok, Hong Kong, China. There were no reported casualties. No group claimed responsibility for the incident."
2.02001E+11,2020,1,5,,0,,44,China,4,East Asia,Hong Kong,Hong Kong,22.495015,114.141235,1,0,The incident occurred in Fanling area of North neighborhood.,"01/05/2020: Assailants threw petrol bombs at the Sheung Shui police station in Fanling, Hong Kong, China. There were no reported casualties in the attack, but a vehicle was damaged in the attack. No group claimed responsibility for the incident."
2.02001E+11,2020,1,6,,0,,44,China,4,East Asia,Hong Kong,Hong Kong,22.326543,114.163297,1,0,The incident occurred along Lai Chi Kok road in Sham Shui Po neighborhood.,"01/06/2020: Two assailants threw petrol bombs at Spicegirl, a restaurant, on Lai Chi Kok Road in Sham Shui Po, Hong Kong, China. There were no reported casualties in the attack. No group claimed responsibility for the incident."
2.02001E+11,2020,1,27,,0,,44,China,4,East Asia,Hong Kong,Hong Kong,22.341277,114.153288,1,0,The incident occurred in So Uk area of Sham Shui Po neighborhood.,"01/27/2020: An explosive device detonated in a restroom at the Caritas Medical Centre in So Uk, Hong Kong, China. There were no reported casualties in the blast. No group claimed responsibility for the incident; however, an anonymous claim was posted online after the attack."
2.02001E+11,2020,1,27,,0,,44,China,4,East Asia,Hong Kong,Hong Kong,22.305512,114.168055,1,0,,"01/27/2020: An explosive device detonated inside a public restroom at King George V Memorial Park along Jordan Road in Hong Kong, China. There were no reported casualties in the attack. No group claimed responsibility for the incident."
2.02001E+11,2020,1,28,,0,,44,China,4,East Asia,Guangdong,Shenzhen,22.49899,113.94412,1,0,,"01/28/2020: An explosive device was discovered and safely defused in Shenzhen, Guangdong, China. There were no reported casualties in the attack. An unidentified group claimed responsibility for the incident and “demanded that the government close the city’s borders to prevent the spread of the coronavirus from the mainland.”"
2.02001E+11,2020,1,30,,0,,44,China,4,East Asia,Hong Kong,Hong Kong,22.458226,114.000814,1,0,The incident occurred in the Tin Shui Wai area of Yuen Long neighborhood.,"01/30/2020: Assailants firebombed a Best Mart 360 in a shopping mall in Tin Shui Wai, Hong Kong, China. There were no casualties reported in the attack. No group claimed responsibility for the incident."
2.02001E+11,2020,1,29,,0,,44,China,4,East Asia,Hong Kong,Hong Kong,22.449856,114.002405,1,0,The incident occurred in the Tin Shui Wai area of Yuen Long neighborhood.,"01/29/2020: Assailants threw petrol bombs at the Tin Shui Wai police station in Hong Kong, China. There were no reported casualties in the attack. This was one of five related attacks targeting police within a 24-hour period. No group claimed responsibility for the incident."
2.02001E+11,2020,1,29,,0,,44,China,4,East Asia,Hong Kong,Hong Kong,22.35677,114.129494,1,0,The incident occurred in Kwai Chung area of Kwai Tsing neighborhood.,"01/29/2020: Assailants threw three petrol bombs at the Kwai Chung Police Station in Hong Kong, China. There were no reported casualties in the attack. This was one of five related attacks targeting police within a 24-hour period. No group claimed responsibility for the incident."
2.02001E+11,2020,1,29,,0,,44,China,4,East Asia,Hong Kong,Hong Kong,22.318361,114.169528,1,0,The incident occurred at the intersection of Nelson and Nathan streets in Mong Kok area.,"01/29/2020: Assailants threw two petrol bombs at a police vehicle in Mong Kok, Hong Kong, China. There were no reported casualties in the attack. This was one of five related attacks targeting police within a 24-hour period. No group claimed responsibility for the incident."
2.02001E+11,2020,1,30,,0,,44,China,4,East Asia,Hong Kong,Hong Kong,22.315293,114.177706,1,0,The incident occurred in Ho Man Tin area of Kowloon City neighborhood.,"01/30/2020: Assailants threw seven petrol bombs at the Hung Hom Police Station in Ho Man Tin, Hong Kong, China. There were no reported casualties in the attack. This was one of five related attacks targeting police within a 24-hour period. No group claimed responsibility for the incident."
2.02001E+11,2020,1,30,,0,,44,China,4,East Asia,Hong Kong,Hong Kong,22.324291,114.169092,1,0,The incident occurred in Mong Kok area of Yau Tsim Mong neighborhood.,"01/30/2020: Assailants threw two petrol bombs at the Mong Kok Police Station in Prince Edward, Hong Kong, China. There were no reported casualties in the attack. This was one of five related attacks targeting police within a 24-hour period. No group claimed responsibility for the incident."
2.02002E+11,2020,2,2,,0,,44,China,4,East Asia,Hong Kong,Hong Kong,22.528219,114.113343,1,0,The incident occurred in Lo Wu area.,"02/02/2020: One explosive device partially detonated and another was safely defused on a train at the Lo Wu station in Lo Wu, Hong Kong, China. There were no reported casualties in the attack. An unidentified individual claimed responsibility for the incident, stating that the attack was in protest of Hong Kong’s refusal to close the border to stop the spread of the COVID-19 pandemic."
2.02002E+11,2020,2,4,,0,,44,China,4,East Asia,Hong Kong,Hong Kong,22.34014,114.138429,1,0,The incident occurred in the Lai Chi Kok area of Sham Shui Po neighborhood.,"02/04/2020: An explosive device detonated in a restroom of the Lai Chi Kok public library in Lai Chi Kok, Hong Kong, China. No casualties were reported in the attack. No group claimed responsibility for the incident. Sources noted that the attack was motivated by public calls to close Hong Kong's borders to prevent the spread of COVID-19."
2.02003E+11,2020,3,22,,0,,44,China,4,East Asia,Hong Kong,Hong Kong,22.497559,114.128382,1,0,The incident occurred along Po Wing road in Fanling area.,"03/22/2020: An assailant threw four Molotov cocktails at Sheung Shui Police Married Quarters in Fanling, Hong Kong, China. There were no reported casualties, but a vehicle was damaged in the attack. No group claimed responsibility for the incident; however, authorities detained an individual in connection with the incident."
2.02003E+11,2020,3,30,,0,,44,China,4,East Asia,Hong Kong,Hong Kong,22.26706,114.186994,1,0,The incident occurred in the Happy Valley area of Wan Chai neighborhood.,"03/30/2020: Assailants threw three incendiary devices at the Happy Valley Police Station in Wan Chai, Hong Kong, China. There were no reported casualties in the attack. No group claimed responsibility for the incident."
2.02003E+11,2020,3,31,,0,,44,China,4,East Asia,Hong Kong,Hong Kong,22.452208,114.173189,1,0,The incident occurred in Tai Po neighborhood.,"03/31/2020: Assailants threw five incendiary devices at the Tai Po ­Police Station in Tai Po, Hong Kong, China. There were no reported casualties in the attack. No group claimed responsibility for the incident; however, three students were arrest in connection with the attack."
2.02004E+11,2020,4,2,,0,,44,China,4,East Asia,Hong Kong,Hong Kong,22.396774,113.966382,1,0,The incident occurred along Ming Kum road in Tuen Mun neighborhood.,"04/02/2020: Assailants threw petrol bombs targeting a Best Mart 360 store along Ming Kum road in Tuen Mun neighborhood, Hong Kong, China. There were no reported casualties in the attack. No group claimed responsibility for the incident. Best Mart 360 stores have been singled out by anti-extradition law protesters as a front for Fujian gangs/Triads who have recently begun attacking protesters, a claim that Best Mart 360 has denied."
2.02004E+11,2020,4,20,,0,,44,China,4,East Asia,Hong Kong,Hong Kong,22.278437,114.168685,1,0,The incident occurred along Arsenal Street in Wan Chai neighborhood.,"04/20/2020: Police personnel safely defused a letter bomb sent to police commissioner Chris Tang Ping-keung at the police headquarters  along Arsenal Street in Wan Chai neighborhood, Hong Kong, China. No group claimed responsibility for the incident."
2.02005E+11,2020,5,31,,0,,44,China,4,East Asia,Hong Kong,Hong Kong,22.377414,114.136057,1,0,The incident occurred in Tsuen Wan.,"05/31/2020: An incendiary device detonated outside a residence on the 24th floor of Wing Shue House at Lei Muk Shue Estate in Tsuen Wan, Hong Kong, China. There were no reported casualties in the attack. No group claimed responsibility for the incident."
2.02007E+11,2020,7,24,,0,,44,China,4,East Asia,Hong Kong,Hong Kong,22.350409,114.097857,1,0,The incident occurred at Cheung Hong Estate in Tsing Yi.,"07/24/2020: An incendiary device detonated at the entrance of Lok Sin Tong Leung Chik Wai Memorial School in Cheung Hong Estate, Tsing Yi, Hong Kong, China. There were no reported casualties in the attack. No group claimed responsibility for the incident; however two students and one former student were arrested in connection with the incident. Authorities also suspected that the attack was carried out in order to ""suspend classes or prompt students to boycott classes in support of protesters."""
2.02012E+11,2020,12,1,,0,,44,China,4,East Asia,Hong Kong,Mongkok,22.327702,114.169169,1,0,,"12/01/2020: Assailants threw Molotov cocktails at the Police Sports and Recreation Club in Mongkok, Hong Kong, China. There were no reported casualties, but three assailants were arrested in relation to the attack. No group claimed responsibility for the incident."
